<?xml version="1.0" encoding="UTF-8"?>
<kml xmlns="http://www.opengis.net/kml/2.2">
  <Document>
    <name>District 8</name>
    <Style id="districtStyle">
      <LineStyle>
        <color>ff2dc0fb</color>
        <width>4</width>
      </LineStyle>
      <PolyStyle>
        <color>40ffffff</color>
      </PolyStyle>
    </Style>

    <Placemark>
      <name>District 8 Polygon</name>
      <styleUrl>#districtStyle</styleUrl>
      <Polygon>
        <outerBoundaryIs>
          <LinearRing>
            <coordinates>
              -86.22212347693544,39.92649359691546,0
              -86.22961277436283,39.92632867112822,0
              -86.20191377912518,39.86823853891254,0
              -86.21697441936615,39.86821995895856,0
              -86.21616677801768,39.82438925284526,0
              -86.18733674218257,39.82478335112226,0
              -86.18438454242211,39.83192618566578,0
              -86.17790298079439,39.8369294733047,0
              -86.17960591802,39.84347036957577,0
              -86.1803862958517,39.84687206654316,0
              -86.17955486601679,39.84978772844039,0
              -86.17852152982694,39.85088715889751,0
              -86.17657296346022,39.85125777924815,0
              -86.17059331357345,39.85174970237593,0
              -86.16611521206069,39.8527396337435,0
              -86.16324607985116,39.85449606229415,0
              -86.16258911592631,39.86021483886002,0
              -86.16164386516877,39.86486266422558,0
              -86.15972732965936,39.86872596266037,0
              -86.15632930009487,39.87148252407544,0
              -86.158090711423,39.88322205759958,0
              -86.14589696257808,39.88333554255107,0
              -86.14582436892701,39.89052711506388,0
              -86.1377088981958,39.89072142727461,0
              -86.13663378701447,39.89244147700443,0
              -86.13552709971461,39.8935032552515,0
              -86.13445499137752,39.89424646420636,0
              -86.13220934464776,39.89445975823516,0
              -86.12662001806014,39.89278614632194,0
              -86.12413625014062,39.89219854076256,0
              -86.12196956611136,39.89314285978665,0
              -86.1206543087842,39.90427552594255,0
              -86.11665865050851,39.90871659648793,0
              -86.11388856098648,39.91457004936293,0
              -86.11104785147822,39.92914526643693,0
              -86.12602234845353,39.92946785801343,0
              -86.1264169074076,39.95675152565263,0
              -86.2225997385986,39.95568534817674,0
              -86.22212347693544,39.92649359691546,0
            </coordinates>
          </LinearRing>
        </outerBoundaryIs>
      </Polygon>
    </Placemark>
  </Document>
</kml>