<?xml version="1.0" encoding="UTF-8"?>
<kml xmlns="http://www.opengis.net/kml/2.2">
<Document>
<name>Indiana District 7 Boundaries</name>
<description>All Little League boundaries for Indiana District 7</description>
<Style id="s"><LineStyle><color>ff327d2e</color><width>2</width></LineStyle><PolyStyle><color>33327d2e</color></PolyStyle></Style>
<Placemark><name>Beech Grove Little League</name><styleUrl>#s</styleUrl><Polygon><outerBoundaryIs><LinearRing><coordinates>-86.1021640517006,39.7692446444192,0 -86.1020440224056,39.7692510298798,0 -86.0832334827116,39.7702515969037,0 -86.0829915187948,39.7578807236901,0 -86.0829485748326,39.7542875738039,0 -86.0828587433042,39.7528372578334,0 -86.0828587433042,39.7518012998494,0 -86.0827689117758,39.7456542905692,0 -86.0826790802474,39.7383324186749,0 -86.082589248719,39.7358455689205,0 -86.0822299226052,39.7326677954156,0 -86.0821400910768,39.7315624487919,0 -86.0822299226052,39.7309406835273,0 -86.0824994171905,39.7300425689355,0 -86.0801637965532,39.7283844785218,0 -86.0740552544169,39.7239627109699,0 -86.063544964693,39.7171222307042,0 -86.0566279370043,39.7126997409554,0 -86.0585143991012,39.7108339173575,0 -86.0607601873118,39.7088989379779,0 -86.0619358170159,39.7081987442152,0 -86.063544964693,39.7072403398435,0 -86.0668687312446,39.7057199225024,0 -86.0705518239101,39.7044759203232,0 -86.0740552544169,39.7037847983105,0 -86.0773790200703,39.7035774603568,0 -86.0792654821672,39.7035774603568,0 -86.0824994171905,39.7036465723861,0 -86.0824994171905,39.7003290844149,0 -86.0824994171905,39.6982555723223,0 -86.0824994171905,39.6963893594882,0 -86.0824994171905,39.6953525523926,0 -86.0824095856621,39.6945230955029,0 -86.0824994171905,39.6936936286459,0 -86.0824994171905,39.6934171374786,0 -86.082589248719,39.6904447874873,0 -86.082589248719,39.6881635948837,0 -86.082589248719,39.686227978414,0 -86.0824994171905,39.6806282109432,0 -86.0921113907319,39.680282531404,0 -86.09678263021,39.6802133959799,0 -86.0975012815391,39.6801442584125,0 -86.099747070648,39.6802133959799,0 -86.1012568844176,39.6801371996041,0 -86.1014835311604,39.6809609396926,0 -86.1032517102872,39.6863730457626,0 -86.1051093391585,39.6921930749665,0 -86.1060647217178,39.6951861399473,0 -86.1071095549198,39.6994222086923,0 -86.1082534345685,39.7035755735786,0 -86.1094001510968,39.7077389898159,0 -86.109922568147,39.7091610895855,0 -86.1107262845436,39.7106140744868,0 -86.1115300027369,39.7117269783661,0 -86.1119720484169,39.7121597693937,0 -86.1122935347959,39.7124070775307,0 -86.1130168807206,39.7127471245986,0 -86.1134589264006,39.7130562566537,0 -86.1143430150657,39.7134890393416,0 -86.1151869193932,39.7138599933752,0 -86.1166336112427,39.7143236844939,0 -86.120632106896,39.7157920163754,0 -86.1207526652987,39.7202895555332,0 -86.1207676482993,39.7231335979845,0 -86.1208574798278,39.726726348921,0 -86.1208574798278,39.7276935953435,0 -86.1208574798278,39.7292826154052,0 -86.1208574798278,39.7304570844444,0 -86.1209473113562,39.7377107144758,0 -86.1210166999237,39.7464757809196,0 -86.1211370553071,39.7585819025484,0 -86.1211970079709,39.7646115113993,0 -86.1212109606039,39.7660147696431,0 -86.1212155626731,39.7664775776003,0 -86.1211947091821,39.7680751664514,0 -86.1167644346942,39.7683580918909,0 -86.1064609263689,39.7690160848613,0 -86.1030704257713,39.7691964323769,0 -86.1021640517006,39.7692446444192,0</coordinates></LinearRing></outerBoundaryIs></Polygon></Placemark>
<Placemark><name>Ben Davis Little League</name><styleUrl>#s</styleUrl><Polygon><outerBoundaryIs><LinearRing><coordinates>-86.327372859474,39.8263700893364,0 -86.327129000112,39.8261304790315,0 -86.326746608855,39.8257562128971,0 -86.3263632402311,39.8253712104753,0 -86.3259117963766,39.8249090856427,0 -86.3254944013663,39.824484280736,0 -86.325196203811,39.8241872130243,0 -86.3248926496018,39.8238884647604,0 -86.3245731476012,39.8235706470748,0 -86.3243036566092,39.8233075688076,0 -86.3240139589132,39.8230212713319,0 -86.3237200454236,39.8227258710716,0 -86.3233472876998,39.8223557646467,0 -86.3230459047185,39.8220545439562,0 -86.3225826848489,39.8215873816126,0 -86.3221812735625,39.8211774983803,0 -86.3217521411647,39.8207435278417,0 -86.3213059425731,39.820295431142,0 -86.321020595418,39.8200033668497,0 -86.3205009406873,39.8194789358847,0 -86.3200398632997,39.8190125929649,0 -86.3196874101962,39.8186549571328,0 -86.3192785069603,39.8182417141574,0 -86.3189356272028,39.8178948552709,0 -86.3185479825981,39.8175073096746,0 -86.3183052218757,39.8172592092157,0 -86.3181454897401,39.8170982211234,0 -86.3179137666176,39.8168179869569,0 -86.3177117040691,39.816584959698,0 -86.3175201850471,39.8163742744283,0 -86.3172530709974,39.8160722153892,0 -86.3169565892243,39.8156909088756,0 -86.3164669822416,39.8150249717036,0 -86.316140630587,39.8145997372246,0 -86.3158616947081,39.8141925503079,0 -86.3153053518829,39.813350129313,0 -86.3152336726114,39.8132445502966,0 -86.3121312985564,39.8121512793523,0 -86.3097537849858,39.8112405924561,0 -86.3077940221584,39.8105377032013,0 -86.307631618433,39.8108823130763,0 -86.3073501942208,39.8114531621063,0 -86.3071237792433,39.8118429817163,0 -86.3066532911048,39.8123447024947,0 -86.3061405201641,39.8127189947544,0 -86.3052352231735,39.8131436798754,0 -86.3042393310864,39.8134992618902,0 -86.3037549343323,39.8137294898374,0 -86.3033157632612,39.8139580209425,0 -86.3029506340308,39.8142582690064,0 -86.3026590795171,39.8144883991893,0 -86.3021186198044,39.8149941510192,0 -86.3013652593694,39.8157924358909,0 -86.3006039021317,39.8165116684584,0 -86.3001612114613,39.8169672658777,0 -86.2945842518861,39.8147302236325,0 -86.2839915354466,39.8104810489672,0 -86.2814762526507,39.8093079436924,0 -86.2791406329116,39.8077897786313,0 -86.2753677087178,39.8057885098271,0 -86.2751857154311,39.8011181009663,0 -86.2751694325683,39.8007928623622,0 -86.2749185510757,39.7970926655356,0 -86.273930404263,39.7940557624496,0 -86.2716846160524,39.7896382095017,0 -86.2709687441108,39.7876441574208,0 -86.270522855438,39.7854572126903,0 -86.2704585091142,39.784755486748,0 -86.2703664865948,39.7836947568813,0 -86.2703302162169,39.7830584183896,0 -86.270299168644,39.781722276314,0 -86.2702855771338,39.7811373845102,0 -86.2702754279677,39.7807005799764,0 -86.2702594801765,39.7800142544328,0 -86.2702477993828,39.7794726016764,0 -86.2592861349746,39.779802345614,0 -86.2586952303672,39.7794910979813,0 -86.257666127564,39.7792308713878,0 -86.2515579034314,39.7785114207403,0 -86.2505221593834,39.7782460899218,0 -86.2466978794031,39.7770418808013,0 -86.243590652649,39.7762050449653,0 -86.2417316268975,39.7758376506106,0 -86.239527355226,39.7749803894899,0 -86.2356499596596,39.7730821297498,0 -86.2347470045769,39.7724289534702,0 -86.2342158550039,39.7710205198401,0 -86.2335784751569,39.7682648054495,0 -86.2332597852334,39.7674584839515,0 -86.2328083072428,39.7668358749459,0 -86.232529454009,39.7665194638349,0 -86.2312546934166,39.7656927064277,0 -86.2305641988818,39.7654375339693,0 -86.2295948502148,39.7653558779475,0 -86.2282271382451,39.765059874316,0 -86.2267224799069,39.7651695654111,0 -86.2237087713671,39.7652460007117,0 -86.221964798244,39.7652283616443,0 -86.2213375801395,39.7651225299075,0 -86.2207103611366,39.7648520673699,0 -86.2203891029298,39.7645463273618,0 -86.2199684084074,39.7638878055448,0 -86.2192341030362,39.7632351579807,0 -86.2174977790677,39.7621767943697,0 -86.2156620178854,39.7617005264044,0 -86.2138033092392,39.7611007764387,0 -86.211799270248,39.7607950183931,0 -86.2109884751269,39.7607156398405,0 -86.2105295348314,39.7605304203299,0 -86.2103956777692,39.7603216819614,0 -86.2104836408018,39.7600894203779,0 -86.210770478262,39.7595337573705,0 -86.2111452796531,39.7586517425683,0 -86.2110611407486,39.7582930538933,0 -86.2108240214462,39.7577932377729,0 -86.2108316706008,39.7574757057206,0 -86.2110496665675,39.7572493156008,0 -86.2114129946758,39.7571434709102,0 -86.2119369523366,39.7571522918252,0 -86.2121243525831,39.7570729076927,0 -86.2124417866618,39.7570493868343,0 -86.2134476302856,39.7567700736965,0 -86.2136044348117,39.7566054247235,0 -86.2133443689436,39.7557233724184,0 -86.2130231107367,39.7550059613168,0 -86.2126177136254,39.7546060908701,0 -86.2120287403958,39.7543179458564,0 -86.2089385421062,39.7530712663094,0 -86.2081736410147,39.7522068118436,0 -86.2078370853968,39.7510953527698,0 -86.2078217870875,39.750527854619,0 -86.2076804272961,39.7500843518934,0 -86.207375534597,39.7492932028637,0 -86.2061559673941,39.7484727413727,0 -86.2047839542908,39.7473006375656,0 -86.2030689365642,39.7458647828813,0 -86.2018112592336,39.7447805468567,0 -86.20131580871,39.7438721184291,0 -86.201277697684,39.7428171554607,0 -86.2007441370328,39.7407071803791,0 -86.1999437956067,39.738714367467,0 -86.1991053431546,39.7379817015192,0 -86.1977333300514,39.7376593255374,0 -86.1969329886253,39.7373662554684,0 -86.1965854582896,39.736743607908,0 -86.1975736051022,39.736121889377,0 -86.1983820888581,39.7355001659287,0 -86.1985617519149,39.7352929226119,0 -86.1995391360122,39.7344339298239,0 -86.2010770347108,39.73308229583,0 -86.2034126535515,39.7310097688336,0 -86.2045804643194,39.7301807405882,0 -86.2063770948878,39.7290753533951,0 -86.2077245678142,39.7283844785218,0 -86.2175162044125,39.7238245268555,0 -86.2176060359409,39.7238245268555,0 -86.2201213187368,39.7226499434483,0 -86.222636602431,39.7214753414154,0 -86.2248823897433,39.7205080077624,0 -86.2251518843286,39.7203698153432,0 -86.2251518843286,39.7206461999047,0 -86.2256010419707,39.7205771035227,0 -86.229912955335,39.7203698153432,0 -86.232158744444,39.7203007193753,0 -86.2334163849436,39.7202316233381,0 -86.2345841948131,39.7202316233381,0 -86.235841836211,39.7202316233381,0 -86.2405130756891,39.7204389119329,0 -86.2410520648597,39.7204389119329,0 -86.2429385269566,39.7205080077624,0 -86.2430587008804,39.7211168447444,0 -86.2442566070069,39.7209852176006,0 -86.2459108581961,39.721072968597,0 -86.2479073684069,39.7211168447444,0 -86.2490482297162,39.721072968597,0 -86.2503047122874,39.7210607719062,0 -86.2547962887086,39.7210607719062,0 -86.2644980937784,39.7207843903881,0 -86.3224959534066,39.7196852923536,0 -86.3264818483914,39.7196097565791,0 -86.3265716799198,39.7241699876585,0 -86.3264818483914,39.7294207899627,0 -86.3265716799198,39.7355001659287,0 -86.3266615114482,39.7430986319066,0 -86.3266615114482,39.7503509308404,0 -86.3267513429766,39.7600885323162,0 -86.3269310060335,39.7685128638054,0 -86.3269310060335,39.7779027069254,0 -86.3266615114482,39.7787311603074,0 -86.3263920168629,39.7792834588627,0 -86.3263920168629,39.7805951468881,0 -86.3264818483914,39.7850823108992,0 -86.3265716799198,39.7899833403514,0 -86.3266615114482,39.7951601063593,0 -86.3268411736067,39.8002674669861,0 -86.3267513429766,39.8004745134285,0 -86.3270208384602,39.8079968024237,0 -86.3271106690903,39.8114471193743,0 -86.3271106690903,39.8154492699739,0 -86.3272005006187,39.8176572529323,0 -86.3272903321472,39.8226939478781,0 -86.327372859474,39.8263700893364,0</coordinates></LinearRing></outerBoundaryIs></Polygon></Placemark>
<Placemark><name>Broad Ripple Haverford Little League</name><styleUrl>#s</styleUrl><Polygon><outerBoundaryIs><LinearRing><coordinates>-86.0662399105457,39.926863728849,0 -86.0681263726426,39.9246592583588,0 -86.0716298022512,39.9189410828907,0 -86.0754925579734,39.9112931364326,0 -86.07863666057,39.9051603828438,0 -86.0700128347395,39.9051603828438,0 -86.0662399105457,39.9028173889174,0 -86.0697433401542,39.902748475409,0 -86.0697433401542,39.8978554873983,0 -86.0698331716826,39.8887577373248,0 -86.0697433401542,39.8785557943892,0 -86.0696535086258,39.8749020265317,0 -86.0702823293248,39.8742815553626,0 -86.0702823293248,39.8728337697707,0 -86.0703721608532,39.8698002137065,0 -86.0701924977964,39.8670423183606,0 -86.0715399707227,39.8669044214069,0 -86.0732467697628,39.8661459794149,0 -86.0739654219902,39.8659391294542,0 -86.0727976121207,39.8645601183755,0 -86.074145085047,39.8640774586393,0 -86.0796248082809,39.8635258425666,0 -86.08366722706,39.8627673639151,0 -86.0844757108159,39.8624225964275,0 -86.0854638576285,39.8617330597031,0 -86.0860028467991,39.8604918748965,0 -86.0867725026734,39.8550169725038,0 -86.0961198118708,39.8550145588744,0 -86.0961236324057,39.8550145588744,0 -86.0964580311686,39.8550169345753,0 -86.0968934868076,39.8543948477744,0 -86.0969123172926,39.8543679465926,0 -86.0972552940682,39.8538779748474,0 -86.09742774006,39.8536548128253,0 -86.0975884253082,39.8534468707736,0 -86.0976185583961,39.8534078745864,0 -86.097996935082,39.8529182166653,0 -86.0984067060905,39.8524886954797,0 -86.0985478691509,39.8523407288787,0 -86.0989230343597,39.8519964338221,0 -86.0994696232775,39.8514948218931,0 -86.0997106502514,39.8512923849471,0 -86.1000077132345,39.8510428844416,0 -86.1007092229113,39.8504536919292,0 -86.1010382147145,39.8502230794495,0 -86.101053103392,39.8502126435661,0 -86.1021713145797,39.8494288146726,0 -86.1035910282246,39.8482981776441,0 -86.1048518173193,39.8472814016752,0 -86.1085388329276,39.8441740417578,0 -86.1110916940484,39.8420373795126,0 -86.1131264123032,39.8403343865016,0 -86.113804484036,39.8397567928574,0 -86.1143455761626,39.839302178405,0 -86.1152665766027,39.8385283735924,0 -86.1160014802519,39.8380351316743,0 -86.1160495877303,39.8380028438034,0 -86.1161965341445,39.8379042184008,0 -86.1166968840798,39.8375684008124,0 -86.1171183628313,39.8373194464064,0 -86.1180742179045,39.8367548548136,0 -86.1189006176603,39.8363562126181,0 -86.1200872427435,39.8358273993091,0 -86.1218036124346,39.835095189438,0 -86.1232445146421,39.8343060205414,0 -86.1253803643333,39.8329669738079,0 -86.1254376525939,39.8329310564272,0 -86.1266666592938,39.832052366455,0 -86.1271328328241,39.8316048815845,0 -86.1276731712642,39.8307261746478,0 -86.1278187639172,39.8304879758016,0 -86.1284042175476,39.8295301389069,0 -86.1298133355636,39.8276831574319,0 -86.1307451023124,39.8265539408842,0 -86.1310534490338,39.8261802517417,0 -86.1310537724273,39.8261798619494,0 -86.1316460819998,39.8254620358685,0 -86.1316543393139,39.8254536245435,0 -86.1316800383176,39.8254536245435,0 -86.1346017036767,39.8254536245435,0 -86.1399915953822,39.8253846339777,0 -86.1415187313654,39.825108670332,0 -86.1450221609739,39.8250396794198,0 -86.1567900911975,39.8249016973877,0 -86.1614613306756,39.8248327069576,0 -86.1807751092869,39.8246947245099,0 -86.1875124739187,39.824556741785,0 -86.1870633162766,39.8267644314406,0 -86.1868836532197,39.8274543208155,0 -86.186524327106,39.8280752147088,0 -86.1852666857081,39.8295239453043,0 -86.1847276974359,39.8303517776419,0 -86.1844582019523,39.8307656893799,0 -86.1839192127817,39.83124858475,0 -86.184188707367,39.8318694443509,0 -86.1805056147016,39.8333180949302,0 -86.1783496580194,39.8346287524615,0 -86.1778106688489,39.8354565239692,0 -86.1778106688489,39.8375948843606,0 -86.1787988156615,39.8417334606301,0 -86.1797869615759,39.8467683919403,0 -86.1799666264294,39.8485615643522,0 -86.1787988156615,39.8502857264406,0 -86.1773615112067,39.8510443437373,0 -86.1686478529496,39.8519408806428,0 -86.1639766125732,39.8533891078314,0 -86.1629884666588,39.8549062654462,0 -86.1627189720736,39.8598023173914,0 -86.162179982903,39.862146782983,0 -86.1616409937325,39.8638706024422,0 -86.1607426775499,39.8671802164161,0 -86.1589460478797,39.869179696386,0 -86.1560714389701,39.8710412294404,0 -86.1570595857828,39.8743504974936,0 -86.157957901067,39.8773149139269,0 -86.157868070437,39.8831054973187,0 -86.15265784089,39.8830365646781,0 -86.1495137373952,39.8831054973187,0 -86.1472679491846,39.883243362392,0 -86.1458306447298,39.88317442989,0 -86.1458306447298,39.8847598599029,0 -86.1458306447298,39.8866898984434,0 -86.1458306447298,39.8905498145916,0 -86.1376559756431,39.8905498145916,0 -86.1371169855743,39.8915836836138,0 -86.1357695135462,39.8934446085578,0 -86.1343322090914,39.894064905645,0 -86.1340627154045,39.894271669404,0 -86.1333440622788,39.894271669404,0 -86.1328050731082,39.8942027486798,0 -86.1307389479544,39.8937892187438,0 -86.1275050129312,39.8930999966392,0 -86.1256185508342,39.892755382988,0 -86.1236422572089,39.8915836836138,0 -86.1224744473394,39.8915147594975,0 -86.121755795112,39.891790455547,0 -86.1216659635836,39.8952365626042,0 -86.1218456266404,39.8964771187294,0 -86.1216659635836,39.8981311586324,0 -86.1216659635836,39.8993027453874,0 -86.121755795112,39.9005432285972,0 -86.121755795112,39.9014391186742,0 -86.121486301425,39.9028173889174,0 -86.121126974413,39.9035754246657,0 -86.1207676482993,39.9041267186254,0 -86.1198693330151,39.9055738448536,0 -86.1195100069014,39.906125121355,0 -86.1191506807877,39.9066763954878,0 -86.1180727015483,39.9077789283784,0 -86.1170845556339,39.9088125388724,0 -86.1160964088213,39.9097772259545,0 -86.1146591043665,39.9115687529153,0 -86.1139404521391,39.9121888859464,0 -86.112862473798,39.9139114489301,0 -86.1121438215706,39.9174253409901,0 -86.1121438215706,39.9189410828907,0 -86.1121438215706,39.9221102508688,0 -86.1123234846274,39.924177020977,0 -86.1123234846274,39.926932617408,0 -86.1108861801726,39.926932617408,0 -86.108640391962,39.926863728849,0 -86.1049572992966,39.926863728849,0 -86.1032505002566,39.926863728849,0 -86.0981301031364,39.926863728849,0 -86.0963334725679,39.926863728849,0 -86.0940876843573,39.926863728849,0 -86.091482570033,39.926863728849,0 -86.0886977926518,39.926863728849,0 -86.0792654821672,39.926932617408,0 -86.0761213786724,39.926932617408,0 -86.0695636770974,39.9270015058977,0 -86.0662399105457,39.926863728849,0</coordinates></LinearRing></outerBoundaryIs></Polygon></Placemark>
<Placemark><name>Decatur Little League</name><styleUrl>#s</styleUrl><Polygon><outerBoundaryIs><LinearRing><coordinates>-86.2629905347802,39.618724012883,0 -86.2630613417876,39.6178331335622,0 -86.263307071442,39.6174019740042,0 -86.2642217306745,39.6162031257591,0 -86.2649452679404,39.6149096078752,0 -86.2665561610441,39.6112918371539,0 -86.2714434462464,39.6113339055348,0 -86.2734638884747,39.6112602858513,0 -86.2881090354171,39.6110291292667,0 -86.3120399982826,39.6105457800536,0 -86.3302350689377,39.6102006842636,0 -86.3388100021622,39.6100199195441,0 -86.3476045950332,39.6097989155777,0 -86.3536479895484,39.6094551192314,0 -86.3582552896395,39.6092270986247,0 -86.3588665339016,39.6093102952699,0 -86.3593872836786,39.6096616753167,0 -86.3649571510546,39.6074740424614,0 -86.3697215718788,39.6056018787038,0 -86.3712505547983,39.6047394045385,0 -86.3726566733396,39.6038874371628,0 -86.3737624554371,39.6029407947594,0 -86.3744450376109,39.6022150270968,0 -86.3749091926267,39.602740946883,0 -86.3749774511136,39.6032247893928,0 -86.3749364960214,39.6091883952018,0 -86.3749091926267,39.6104083994008,0 -86.3749091926267,39.6127957589744,0 -86.3677699334148,39.612760842985,0 -86.3659089430478,39.6128079588747,0 -86.3655856717163,39.6129762271759,0 -86.3654720905284,39.6132791104715,0 -86.3655157756007,39.6163213285724,0 -86.3655332496296,39.6170953228547,0 -86.3652711382976,39.6175395248474,0 -86.3645983854897,39.6181385192668,0 -86.3601250179193,39.6216650788576,0 -86.3558526016813,39.6251174331234,0 -86.3540178223576,39.6266248406224,0 -86.3536421289395,39.6268469110478,0 -86.3531528543334,39.6269949578328,0 -86.3523315722797,39.6271026275197,0 -86.3515015523133,39.6280312750742,0 -86.350107540367,39.62965637986,0 -86.3476820890995,39.631662765382,0 -86.3358782837567,39.6413724220205,0 -86.3263031716847,39.6489324908532,0 -86.3263021853345,39.6489567859174,0 -86.3263021853345,39.6613366473183,0 -86.3263920168629,39.6686666938313,0 -86.3264818483914,39.6766873616265,0 -86.3265716799198,39.681596104448,0 -86.3264818483914,39.6865736288833,0 -86.3202834729301,39.6894078904111,0 -86.3177681901342,39.6904447874873,0 -86.3137257713551,39.6918964169539,0 -86.3077070589506,39.6937627519559,0 -86.3000713790346,39.6961128784276,0 -86.2980950854092,39.6970805555663,0 -86.2956696341418,39.6988085154785,0 -86.2821949048781,39.7093826875652,0 -86.2801287797243,39.7104883897501,0 -86.277882992412,39.7112485497224,0 -86.2753677087178,39.7117322835254,0 -86.2677320288018,39.7118704925604,0 -86.2660252297617,39.7122851173129,0 -86.2644980937784,39.712837947361,0 -86.2644980937784,39.7207843903881,0 -86.2547962887086,39.7210607719062,0 -86.2503047122874,39.7210607719062,0 -86.2490482297162,39.721072968597,0 -86.2479073684069,39.7211168447444,0 -86.2459108581961,39.721072968597,0 -86.2442566070069,39.7209852176006,0 -86.2430587008804,39.7211168447444,0 -86.2429385269566,39.7205080077624,0 -86.2410520648597,39.7204389119329,0 -86.2405130756891,39.7204389119329,0 -86.235841836211,39.7202316233381,0 -86.2345841948131,39.7202316233381,0 -86.2334163849436,39.7202316233381,0 -86.232158744444,39.7203007193753,0 -86.229912955335,39.7203698153432,0 -86.2256010419707,39.7205771035227,0 -86.2251518843286,39.7206461999047,0 -86.2251518843286,39.7203698153432,0 -86.2248823897433,39.7205080077624,0 -86.222636602431,39.7214753414154,0 -86.2201213187368,39.7226499434483,0 -86.2176060359409,39.7238245268555,0 -86.2175162044125,39.7238245268555,0 -86.2077245678142,39.7283844785218,0 -86.2063770948878,39.7290753533951,0 -86.2045804643194,39.7301807405882,0 -86.2034126535515,39.7310097688336,0 -86.2010770347108,39.73308229583,0 -86.1995391360122,39.7344339298239,0 -86.1985617519149,39.7352929226119,0 -86.1983820888581,39.7355001659287,0 -86.1975736051022,39.736121889377,0 -86.1965854582896,39.736743607908,0 -86.1964956267611,39.7359146486204,0 -86.1965307535837,39.735617510572,0 -86.1965854582896,39.7351547605151,0 -86.1964956267611,39.734740272563,0 -86.1962261321759,39.7342566994445,0 -86.1962261321759,39.733427710938,0 -86.1960468859373,39.7326695584292,0 -86.1958668060622,39.7319078715158,0 -86.1961363006474,39.7309406835273,0 -86.1961363006474,39.728591741918,0 -86.1961363006474,39.7276918757284,0 -86.1961363006474,39.7244049564502,0 -86.1961363006474,39.7187805919473,0 -86.1961363006474,39.718131950386,0 -86.1961363006474,39.7176601927262,0 -86.1961363006474,39.7173295279539,0 -86.1962968448601,39.7172289038738,0 -86.1966678239197,39.7170291519635,0 -86.1976213352882,39.7164790628371,0 -86.1979736770006,39.7161779209683,0 -86.1983364679163,39.715867846553,0 -86.1986817416841,39.715553963983,0 -86.1992105188064,39.7150732587374,0 -86.1996078149106,39.7142175375353,0 -86.1996756538842,39.7137217834891,0 -86.1996771792236,39.7137106379308,0 -86.1997303181659,39.7133223064573,0 -86.1997667340709,39.7130561854773,0 -86.2000051110147,39.7119559387756,0 -86.2005613262792,39.7109168003553,0 -86.201138974448,39.7103243019014,0 -86.2012764589073,39.7101832826774,0 -86.2022299702758,39.7099387743606,0 -86.2043753690585,39.7093275008138,0 -86.2057858408358,39.7090562325173,0 -86.2057929060854,39.7090548738684,0 -86.2069180639453,39.7088384779385,0 -86.2072827538995,39.7087498813942,0 -86.2080311736005,39.7085680618911,0 -86.2084277887816,39.7084717083346,0 -86.2096991366742,39.7079826793933,0 -86.2101722595715,39.7074688223975,0 -86.2110499441469,39.7065155724629,0 -86.2111529916898,39.7063989868756,0 -86.2124007507213,39.7049873026161,0 -86.2135131803518,39.7040703244601,0 -86.2139004261046,39.7037351506031,0 -86.2141405700346,39.7035272983009,0 -86.2141482479353,39.7035206537955,0 -86.2143712960271,39.7033275986345,0 -86.2146588692075,39.7030786952994,0 -86.2147845273461,39.7029699344494,0 -86.2154156576136,39.7019448318986,0 -86.2154555338291,39.7018850873204,0 -86.215513005346,39.7017989803379,0 -86.2155519212625,39.7017715349501,0 -86.2164531713428,39.7011359123344,0 -86.216929963858,39.7005856515463,0 -86.217088845289,39.7004022899787,0 -86.2189958662296,39.6994852508944,0 -86.2201082958601,39.6988127475448,0 -86.221038848985,39.6984336976916,0 -86.2210480028177,39.6984299687805,0 -86.2214591024345,39.6982625124688,0 -86.2225229502762,39.6976193664472,0 -86.2225715320651,39.6975899978959,0 -86.223207205113,39.6969174753876,0 -86.2236045012171,39.6959392516456,0 -86.2235022882091,39.6946808693391,0 -86.2234455829552,39.6939827598047,0 -86.2231250883162,39.693193601855,0 -86.223048286851,39.6930044937797,0 -86.2224388005919,39.691389076858,0 -86.2224332166641,39.6913742758198,0 -86.2223331542229,39.6911090628242,0 -86.2224026308253,39.6898794147515,0 -86.2225224193718,39.689449246976,0 -86.223147610877,39.6880059464824,0 -86.2231540041869,39.6879488754769,0 -86.2232469349031,39.6871193164915,0 -86.2237832848233,39.6864008318626,0 -86.2241344129117,39.6855151345739,0 -86.2241408511374,39.6854988936632,0 -86.2247169308477,39.6849332654268,0 -86.2247816104465,39.684847290768,0 -86.2249354433456,39.684642806369,0 -86.2248875478696,39.6816202698098,0 -86.2248873816813,39.6816098228582,0 -86.2248818857884,39.6812630199476,0 -86.2248793408612,39.68110240095,0 -86.2248758491097,39.6808820098335,0 -86.2251153022352,39.6798453915689,0 -86.2251158924284,39.6798428355918,0 -86.2251936856337,39.6795060576407,0 -86.2241607155833,39.6778243003742,0 -86.2241450723209,39.6777944947424,0 -86.2241637384142,39.6777935876443,0 -86.2241503086007,39.6773388126678,0 -86.2240739059874,39.6747514234625,0 -86.2260501996128,39.6732302904348,0 -86.2309909336761,39.6719165589703,0 -86.2318892489604,39.6715708358295,0 -86.2329672273015,39.6706719475662,0 -86.2338655425857,39.6698421948644,0 -86.2342248686994,39.6690815788327,0 -86.2374588037227,39.6679752126012,0 -86.2361113307963,39.6660390309673,0 -86.2359316677395,39.664517705409,0 -86.2362909938532,39.6629963484308,0 -86.2363808253816,39.6613366473183,0 -86.2348536893984,39.657463856377,0 -86.2354825100974,39.6548357675032,0 -86.2384469514337,39.6505476185079,0 -86.2390757712344,39.6457750109217,0 -86.2386266135922,39.6410712499424,0 -86.2383571190069,39.6379582898681,0 -86.2375486352511,39.6360904462925,0 -86.2342248686994,39.6338766419542,0 -86.2499453861737,39.6336690934083,0 -86.2499453861737,39.629794753883,0 -86.2498555546453,39.623360100531,0 -86.2496758915884,39.6190699996562,0 -86.2594675281867,39.6188624073846,0 -86.2629709577952,39.618724012883,0 -86.2629905347802,39.618724012883,0</coordinates></LinearRing></outerBoundaryIs></Polygon></Placemark>
<Placemark><name>Douglass Little League</name><styleUrl>#s</styleUrl><Polygon><outerBoundaryIs><LinearRing><coordinates>-86.0470159625645,39.8550441878925,0 -86.0466846432264,39.8525056915018,0 -86.0465336193592,39.8513485869178,0 -86.0462187616487,39.8501399819945,0 -86.0460088568078,39.8493342326376,0 -86.0461138087791,39.8428476115424,0 -86.0461142480553,39.8402689038075,0 -86.0460278166502,39.8363532637409,0 -86.0459379851218,39.8332491129519,0 -86.0458481535934,39.8298688766574,0 -86.0458481535934,39.8279668587804,0 -86.0458481535934,39.8275751596248,0 -86.0458481535934,39.8274623524588,0 -86.0458481535934,39.8273554325968,0 -86.0459602220183,39.8273048059682,0 -86.0534931759884,39.8236757714374,0 -86.0563343882306,39.8223218839307,0 -86.056353647212,39.8223127063913,0 -86.0592991655369,39.8209091148875,0 -86.060737248831,39.8202179565052,0 -86.0623847887067,39.81942613144,0 -86.0641940621645,39.8185565764904,0 -86.0646495762856,39.818337651353,0 -86.0647237402971,39.8182888244402,0 -86.0668579442747,39.8175827553636,0 -86.0698000723577,39.8166093979138,0 -86.071758734749,39.8159614034496,0 -86.0721004790359,39.8158527427566,0 -86.0740366332394,39.8152371197862,0 -86.0746561779347,39.8150201733738,0 -86.0746828111863,39.8150108478871,0 -86.074757083894,39.8149848393293,0 -86.0753398021543,39.8148058007123,0 -86.0759402549549,39.8145468703797,0 -86.0759437098754,39.8145453806377,0 -86.0762297711912,39.8144151705755,0 -86.0767912990922,39.814130334773,0 -86.0799415048428,39.8124942409239,0 -86.081089010092,39.8118982713061,0 -86.0813363962398,39.8117691885893,0 -86.0819644111499,39.81144149964,0 -86.082418665833,39.8112248103663,0 -86.0827132566524,39.8111150677785,0 -86.0827709455616,39.8110935768807,0 -86.0829351656804,39.8110488147362,0 -86.0831046840627,39.8110081224796,0 -86.0833324743609,39.8109877756522,0 -86.0836026426826,39.810934874977,0 -86.0837880531607,39.8108901127291,0 -86.083978761004,39.8108372126687,0 -86.0842161417162,39.810768045956,0 -86.0842696992734,39.8107565696877,0 -86.0842835414136,39.8107484077419,0 -86.0843858792874,39.8106880646552,0 -86.0847553276177,39.8104952227084,0 -86.0848528945391,39.8104442959043,0 -86.086048075177,39.8098204458753,0 -86.0913927394028,39.8070306835286,0 -86.0941775158857,39.8055814786949,0 -86.0992979130059,39.8029590303954,0 -86.1024420173991,39.801302695725,0 -86.1022414083247,39.787932423899,0 -86.1022213148084,39.7839951647136,0 -86.1020440224056,39.7692510298798,0 -86.1064609263689,39.7690160848613,0 -86.1167644346942,39.7683580918909,0 -86.1211947091821,39.7680751664514,0 -86.1292938551061,39.7674311648158,0 -86.1340140078514,39.7670558396012,0 -86.1394546328109,39.7669340678923,0 -86.1429560358202,39.7668556997034,0 -86.1439640407905,39.7668680698907,0 -86.1617824568302,39.7670867287246,0 -86.1654864910215,39.7672030218171,0 -86.1742174077119,39.767477140916,0 -86.1764631959225,39.768581911444,0 -86.1815835930427,39.7696176177133,0 -86.1859853379355,39.7716889835073,0 -86.1886802837882,39.7750030384472,0 -86.1906565774136,39.7777646309676,0 -86.1902972512999,39.7794905684701,0 -86.1895785990725,39.7802499675624,0 -86.1876921369756,39.7819068099122,0 -86.1869734847482,39.7836326435308,0 -86.1875124739187,39.7850823108992,0 -86.1938905124368,39.7865319477248,0 -86.1979329312159,39.7887408593943,0 -86.2008973716539,39.7929514008089,0 -86.2004482140118,39.7954361895663,0 -86.1967651213464,39.7975067789844,0 -86.1958668060622,39.799163204394,0 -86.1981125942728,39.8028900179375,0 -86.1982922573296,39.8053744469394,0 -86.1976634366306,39.8067546468677,0 -86.1945193331358,39.8094459563455,0 -86.1938006809084,39.810757069976,0 -86.1902972512999,39.8182782346686,0 -86.1898480936577,39.8207621089529,0 -86.1902074197714,39.824556741785,0 -86.1875124739187,39.824556741785,0 -86.1807751092869,39.8246947245099,0 -86.1614613306756,39.8248327069576,0 -86.1567900911975,39.8249016973877,0 -86.1450221609739,39.8250396794198,0 -86.1415187313654,39.825108670332,0 -86.1399915953822,39.8253846339777,0 -86.1346017036767,39.8254536245435,0 -86.1316800383176,39.8254536245435,0 -86.1316543393139,39.8254536245435,0 -86.1316460819998,39.8254620358685,0 -86.1310537724273,39.8261798619494,0 -86.1310534490338,39.8261802517417,0 -86.1307451023124,39.8265539408842,0 -86.1298133355636,39.8276831574319,0 -86.1284042175476,39.8295301389069,0 -86.1278187639172,39.8304879758016,0 -86.1276731712642,39.8307261746478,0 -86.1271328328241,39.8316048815845,0 -86.1266666592938,39.832052366455,0 -86.1254376525939,39.8329310564272,0 -86.1253803643333,39.8329669738079,0 -86.1232445146421,39.8343060205414,0 -86.1218036124346,39.835095189438,0 -86.1200872427435,39.8358273993091,0 -86.1189006176603,39.8363562126181,0 -86.1180742179045,39.8367548548136,0 -86.1171183628313,39.8373194464064,0 -86.1166968840798,39.8375684008124,0 -86.1161965341445,39.8379042184008,0 -86.1160495877303,39.8380028438034,0 -86.1160014802519,39.8380351316743,0 -86.1152665766027,39.8385283735924,0 -86.1143455761626,39.839302178405,0 -86.113804484036,39.8397567928574,0 -86.1131264123032,39.8403343865016,0 -86.1110916940484,39.8420373795126,0 -86.1085388329276,39.8441740417578,0 -86.1048518173193,39.8472814016752,0 -86.1035910282246,39.8482981776441,0 -86.1021713145797,39.8494288146726,0 -86.101053103392,39.8502126435661,0 -86.1010382147145,39.8502230794495,0 -86.1007092229113,39.8504536919292,0 -86.1000077132345,39.8510428844416,0 -86.0997106502514,39.8512923849471,0 -86.0994696232775,39.8514948218931,0 -86.0989230343597,39.8519964338221,0 -86.0985478691509,39.8523407288787,0 -86.0984067060905,39.8524886954797,0 -86.097996935082,39.8529182166653,0 -86.0976185583961,39.8534078745864,0 -86.0975884253082,39.8534468707736,0 -86.09742774006,39.8536548128253,0 -86.0972552940682,39.8538779748474,0 -86.0969123172926,39.8543679465926,0 -86.0968934868076,39.8543948477744,0 -86.0964580311686,39.8550169345753,0 -86.0961236324057,39.8550145588744,0 -86.0961198118708,39.8550145588744,0 -86.0529328895591,39.8550257105308,0 -86.050518799285,39.8550332486385,0 -86.0470159625645,39.8550441878925,0</coordinates></LinearRing></outerBoundaryIs></Polygon></Placemark>
<Placemark><name>Eagledale Little League</name><styleUrl>#s</styleUrl><Polygon><outerBoundaryIs><LinearRing><coordinates>-86.2398842549902,39.8288340774024,0 -86.2348536893984,39.8240048074246,0 -86.2318892489604,39.8240737993759,0 -86.229912955335,39.8241427919478,0 -86.2256908726008,39.8239358154041,0 -86.2236247483453,39.8238668233142,0 -86.2163483954413,39.8239358154041,0 -86.2114076595813,39.8239358154041,0 -86.2045804643194,39.8240737993759,0 -86.2028736652793,39.8240048074246,0 -86.1991007410854,39.8244187587831,0 -86.1974837735738,39.8244877503187,0 -86.1917345557546,39.824556741785,0 -86.1902074197714,39.824556741785,0 -86.1898480936577,39.8207621089529,0 -86.1902972512999,39.8182782346686,0 -86.1938006809084,39.810757069976,0 -86.1945193331358,39.8094459563455,0 -86.1976634366306,39.8067546468677,0 -86.1982922573296,39.8053744469394,0 -86.1981125942728,39.8028900179375,0 -86.1958668060622,39.799163204394,0 -86.1967651213464,39.7975067789844,0 -86.2004482140118,39.7954361895663,0 -86.2008973716539,39.7929514008089,0 -86.1979329312159,39.7887408593943,0 -86.1938905124368,39.7865319477248,0 -86.1875124739187,39.7850823108992,0 -86.1869734847482,39.7836326435308,0 -86.1876921369756,39.7819068099122,0 -86.1895785990725,39.7802499675624,0 -86.1902972512999,39.7794905684701,0 -86.1906565774136,39.7777646309676,0 -86.1886802837882,39.7750030384472,0 -86.1859853379355,39.7716889835073,0 -86.1815835930427,39.7696176177133,0 -86.1764631959225,39.768581911444,0 -86.1742174077119,39.767477140916,0 -86.1733190924276,39.7643698787607,0 -86.1739940595828,39.7617483003661,0 -86.1733821388892,39.7560328269832,0 -86.1736880987868,39.7553036587219,0 -86.1743835044113,39.7515296067487,0 -86.1759271119036,39.7514290436326,0 -86.1787181083214,39.7513799164386,0 -86.1810196711314,39.7513394043649,0 -86.1816090971119,39.75139946248,0 -86.1862296940659,39.7514307039505,0 -86.1874524853224,39.7512217888219,0 -86.1881791406406,39.7511688629016,0 -86.1967460267567,39.7510100807528,0 -86.2070474959064,39.750561566964,0 -86.2078217870875,39.750527854619,0 -86.2078370853968,39.7510953527698,0 -86.2081736410147,39.7522068118436,0 -86.2089385421062,39.7530712663094,0 -86.2120287403958,39.7543179458564,0 -86.2126177136254,39.7546060908701,0 -86.2130231107367,39.7550059613168,0 -86.2133443689436,39.7557233724184,0 -86.2136044348117,39.7566054247235,0 -86.2134476302856,39.7567700736965,0 -86.2124417866618,39.7570493868343,0 -86.2121243525831,39.7570729076927,0 -86.2119369523366,39.7571522918252,0 -86.2114129946758,39.7571434709102,0 -86.2110496665675,39.7572493156008,0 -86.2108316706008,39.7574757057206,0 -86.2108240214462,39.7577932377729,0 -86.2110611407486,39.7582930538933,0 -86.2111452796531,39.7586517425683,0 -86.210770478262,39.7595337573705,0 -86.2104836408018,39.7600894203779,0 -86.2103956777692,39.7603216819614,0 -86.2105295348314,39.7605304203299,0 -86.2109884751269,39.7607156398405,0 -86.211799270248,39.7607950183931,0 -86.2138033092392,39.7611007764387,0 -86.2156620178854,39.7617005264044,0 -86.2174977790677,39.7621767943697,0 -86.2192341030362,39.7632351579807,0 -86.2199684084074,39.7638878055448,0 -86.2203891029298,39.7645463273618,0 -86.2207103611366,39.7648520673699,0 -86.2213375801395,39.7651225299075,0 -86.221964798244,39.7652283616443,0 -86.2237087713671,39.7652460007117,0 -86.2267224799069,39.7651695654111,0 -86.227663307962,39.7659868229586,0 -86.2281069499482,39.7665394944514,0 -86.2283517184053,39.7671391977375,0 -86.2283598265991,39.7679463273868,0 -86.2283733363626,39.7692910529229,0 -86.2283817724415,39.7701918445305,0 -86.2283605470479,39.7704727983018,0 -86.2282676064503,39.7717030823902,0 -86.228108707053,39.7738063838146,0 -86.2281241598725,39.7760650366211,0 -86.2284071732044,39.7761150043742,0 -86.2289770239966,39.7765088725795,0 -86.2290936720329,39.7766146875033,0 -86.2293253735958,39.776931319397,0 -86.2295889446901,39.7773392219765,0 -86.2296730835946,39.7774156423848,0 -86.2299484477719,39.7778888633732,0 -86.2297113293678,39.7785884004321,0 -86.2298331328355,39.77879939065,0 -86.2298841346858,39.778928055449,0 -86.2300058159826,39.7792350253393,0 -86.2301129005544,39.7794143153635,0 -86.2301549713541,39.7795671528678,0 -86.2306368582153,39.779911035666,0 -86.2306406832418,39.7799492444529,0 -86.2308089610507,39.7802167074384,0 -86.2308166102054,39.7803225166614,0 -86.2308548550802,39.7804518385939,0 -86.2308204343335,39.7814041138709,0 -86.2307033937334,39.782283520434,0 -86.2305144744359,39.7840521873109,0 -86.2303239345776,39.784286314754,0 -86.2297959641423,39.7846786278568,0 -86.2294206668812,39.7849867787596,0 -86.2290375497855,39.7854336449232,0 -86.2289999768504,39.7854774683586,0 -86.2289923223059,39.7854863974734,0 -86.2288266909338,39.7857076203219,0 -86.2285915290604,39.7860217073478,0 -86.2283498058921,39.7863445576524,0 -86.2282503686783,39.7866208129201,0 -86.228245771999,39.7867927293161,0 -86.2282372119527,39.7871128424537,0 -86.2282274221127,39.7874789589499,0 -86.2281842472835,39.7875763465679,0 -86.228078625169,39.7878145954343,0 -86.2275466599257,39.7891129325412,0 -86.2274195096854,39.789757540308,0 -86.2273509628393,39.7901525728986,0 -86.2272845333224,39.7905354036407,0 -86.2272143991532,39.7909395789814,0 -86.2271649882193,39.7912243286382,0 -86.2271183162487,39.7914932925681,0 -86.2270265281896,39.7916578574184,0 -86.2270188790349,39.7918165458371,0 -86.2268781372844,39.792090505481,0 -86.2266654593442,39.7925129367112,0 -86.2264910972459,39.7928744516802,0 -86.2264796239631,39.7929919953861,0 -86.2263766878113,39.7931941603443,0 -86.2261736640655,39.7935003729141,0 -86.2261086475984,39.7936943185704,0 -86.2260550271591,39.7940568688731,0 -86.2260415218871,39.7941481863615,0 -86.2260321569503,39.7942115043136,0 -86.2260356298372,39.7942502228234,0 -86.2260475154467,39.7943827446541,0 -86.2260771041556,39.7947126428383,0 -86.2261065482356,39.7950409298692,0 -86.2261389917904,39.7954026537982,0 -86.2261671072622,39.7957161223122,0 -86.2262042597857,39.7961303517206,0 -86.2261660149108,39.7963066595483,0 -86.2262578029699,39.7964947209631,0 -86.2262348564043,39.7967297964909,0 -86.2262883986902,39.7968708415599,0 -86.2261029316183,39.7970693198546,0 -86.2260742268517,39.7971000388351,0 -86.2261124717266,39.7971117927686,0 -86.2260971734173,39.7973057289319,0 -86.2263572401837,39.7978581489439,0 -86.2263238839405,39.7980305514419,0 -86.2262731012792,39.7982930293827,0 -86.2264299058054,39.798600089563,0 -86.2264811043866,39.7986287359556,0 -86.2266058327689,39.7986985243046,0 -86.2267607247818,39.7988234049457,0 -86.2267897089244,39.7988368826356,0 -86.2271240528901,39.7989923596906,0 -86.2272885065709,39.7991201778504,0 -86.2273018923669,39.7991554379192,0 -86.2274357494291,39.7992744409492,0 -86.2274825983678,39.7993275997474,0 -86.2275887298271,39.7994463326245,0 -86.2276174139324,39.799503629524,0 -86.2276613954487,39.7996549523531,0 -86.2276499221659,39.7997533869652,0 -86.2276597910576,39.799940095901,0 -86.2276793132454,39.8003094423918,0 -86.2277055979506,39.8006102455986,0 -86.2277034653501,39.8008434926486,0 -86.2276862554259,39.8008567145864,0 -86.2276709562183,39.8009478008178,0 -86.2276403595997,39.8009962818605,0 -86.2280706175866,39.8012019596141,0 -86.2284454180794,39.8013136138617,0 -86.2289120084279,39.8015251665653,0 -86.2290783737236,39.8015119447561,0 -86.2293881586477,39.8015516108663,0 -86.2296654353383,39.8016456334316,0 -86.229998166828,39.8019027289623,0 -86.2301970403572,39.8019923458788,0 -86.2304357379996,39.8020096663412,0 -86.2309675199866,39.8020482576159,0 -86.2314815925861,39.8020855624482,0 -86.2317867125589,39.8021092639187,0 -86.2321666586016,39.8021451318479,0 -86.2350994217478,39.8034315946854,0 -86.2354901529638,39.8035965926655,0 -86.2356278350525,39.8037258715403,0 -86.2359337949501,39.8037963869367,0 -86.2360179338546,39.8039021598958,0 -86.2375400859846,39.8045720515248,0 -86.2378154501619,39.8046484423758,0 -86.2398491299642,39.8046010653311,0 -86.2398864190317,39.8093595303523,0 -86.2400485838051,39.8093577665413,0 -86.2406968108092,39.8093507175074,0 -86.2412985131663,39.8093441749821,0 -86.2420139036109,39.8093363944758,0 -86.2427143460892,39.8093287775144,0 -86.2434222814152,39.8093210784342,0 -86.2440414191738,39.8093143454475,0 -86.2445775346337,39.8093085157583,0 -86.2452945725886,39.8093007173062,0 -86.2460415531884,39.8092925959015,0 -86.2467851660043,39.8092845083092,0 -86.2474756290981,39.8092769996828,0 -86.2479993693667,39.8092713045536,0 -86.2484914844457,39.8092659523878,0 -86.2489155144127,39.8092613413544,0 -86.249496506111,39.8092550237827,0 -86.2499620346509,39.809249960754,0 -86.250368755879,39.8092455374181,0 -86.2508061662521,39.809240781469,0 -86.2514211439126,39.8092340933288,0 -86.2519464032323,39.8092283816345,0 -86.2524567729762,39.8092228314157,0 -86.2529891658176,39.8092170417428,0 -86.2534847816313,39.8093473975951,0 -86.2540342550395,39.8094919188676,0 -86.2543965824246,39.8095872175457,0 -86.2544989526377,39.809599900932,0 -86.2548708210294,39.8096459744515,0 -86.2549864144436,39.8096459744515,0 -86.2554611282572,39.8096459744515,0 -86.2558384197783,39.8096459744515,0 -86.260666855448,39.809055456535,0 -86.2611946363387,39.8090730843694,0 -86.261209934648,39.8094814533326,0 -86.2613858616116,39.8097987454839,0 -86.2616344541968,39.8100631534562,0 -86.2620130797161,39.8102688054685,0 -86.2623687586697,39.8103686926372,0 -86.2627156413201,39.8103653865751,0 -86.2659774807111,39.8103338723642,0 -86.2673241649166,39.8103199483905,0 -86.2676333848004,39.8102935557658,0 -86.2678051732254,39.8102361809098,0 -86.2679381220909,39.8101145456426,0 -86.2680038500236,39.8099917625896,0 -86.26801149828,39.8092939629253,0 -86.2700206334138,39.8092589067948,0 -86.2720839522306,39.8087366924774,0 -86.2754409097354,39.8086771998659,0 -86.2753677087178,39.8057885098271,0 -86.2791406329116,39.8077897786313,0 -86.2814762526507,39.8093079436924,0 -86.2839915354466,39.8104810489672,0 -86.3001612114613,39.8169672658777,0 -86.299532389864,39.8175882538485,0 -86.2990832322219,39.8180712418399,0 -86.2988137376366,39.8186922198356,0 -86.2987239061082,39.8192441968689,0 -86.2987239061082,39.8209000986079,0 -86.2985442430514,39.8215210517317,0 -86.2981849169376,39.8221419999342,0 -86.2975560962387,39.8226249545414,0 -86.2979154223524,39.8230389135228,0 -86.2988137376366,39.8239358154041,0 -86.2989934006934,39.8243497678681,0 -86.2998917159777,39.8264884747168,0 -86.2999815466078,39.8276612853802,0 -86.3000713790346,39.8282821774031,0 -86.2999815466078,39.8286961029907,0 -86.2997120529209,39.8289030645044,0 -86.2973764331818,39.830282791305,0 -86.2968374440113,39.8305587348574,0 -86.2961187917839,39.8308346759218,0 -86.2958492971986,39.8311106158776,0 -86.2956696341418,39.8313865533453,0 -86.2957594656702,39.8333180949302,0 -86.2957594656702,39.8360773448459,0 -86.2956696341418,39.8365602028744,0 -86.2949509819144,39.8370430554387,0 -86.2940526666301,39.8373879497243,0 -86.2931543513459,39.8377328415881,0 -86.29234586759,39.837801819753,0 -86.2896509217373,39.8378707978486,0 -86.2871356389414,39.8378707978486,0 -86.2844406930887,39.837939775875,0 -86.2811169274353,39.838008753832,0 -86.2759965294168,39.8380777317198,0 -86.2716846160524,39.8382156879773,0 -86.2706066377113,39.8382156879773,0 -86.2687201756144,39.8382846649675,0 -86.2661150612901,39.8382846649675,0 -86.2628811262668,39.8382846649675,0 -86.2593776966583,39.8383536425782,0 -86.2564132562202,39.8384226194298,0 -86.2521013428559,39.8384226194298,0 -86.2515623536854,39.8384915975916,0 -86.2509335329864,39.8385605749944,0 -86.250214880759,39.838629552328,0 -86.2492267339463,39.8386985295922,0 -86.2450046521104,39.8342838443198,0 -86.2398842549902,39.8288340774024,0</coordinates></LinearRing></outerBoundaryIs></Polygon></Placemark>
<Placemark><name>Franklin Township Little League</name><styleUrl>#s</styleUrl><Polygon><outerBoundaryIs><LinearRing><coordinates>-85.9517047118045,39.7263809009257,0 -85.9516148802761,39.7194715623599,0 -85.9516148802761,39.716293035475,0 -85.9516148802761,39.7124233259313,0 -85.9515250487476,39.7044759203232,0 -85.9515250487476,39.6971496747934,0 -85.9517047118045,39.6971496747934,0 -85.9518843748614,39.6888548733294,0 -85.9518843748614,39.6874031805993,0 -85.9519742063898,39.6824948505558,0 -85.9519742063898,39.678968933375,0 -85.9520640379182,39.6751662719226,0 -85.9520640379182,39.6724697123969,0 -85.9520640379182,39.669634754959,0 -85.9520640379182,39.6682518056471,0 -85.9520640379182,39.6656241263128,0 -85.9520640379182,39.6585012323728,0 -85.9521538685483,39.6582937584193,0 -85.9520640379182,39.6569797429422,0 -85.9520640379182,39.6568414233059,0 -85.9520640379182,39.6528992163327,0 -85.9520640379182,39.6445299286756,0 -85.9520640379182,39.6443224127882,0 -85.9520640379182,39.6421088719332,0 -85.9523335334018,39.6383733599064,0 -85.953501342373,39.6383041818549,0 -85.9569149395548,39.6383041818549,0 -85.9657184302387,39.6380966465937,0 -85.9790134955472,39.6380966465937,0 -85.9901526059702,39.6379582898681,0 -86.0118918358489,39.637543217339,0 -86.0188088635376,39.6374048608899,0 -86.0302174676475,39.6372665013969,0 -86.0445905121954,39.6371973229302,0 -86.0478244472187,39.6371281437025,0 -86.0541126542084,39.6370589644056,0 -86.0612093449539,39.636851425408,0 -86.0637246277498,39.636851425408,0 -86.0742349165755,39.6365747073901,0 -86.0827689117758,39.6364363476201,0 -86.0826790802474,39.6400336116914,0 -86.0826790802474,39.6437690333524,0 -86.0826790802474,39.6470200707487,0 -86.0826790802474,39.6488184509187,0 -86.082589248719,39.6493717899443,0 -86.0826790802474,39.6506167843119,0 -86.082589248719,39.6511701089446,0 -86.082589248719,39.6537291738726,0 -86.082589248719,39.6554582186354,0 -86.082589248719,39.6560806648541,0 -86.0824095856621,39.6567031033928,0 -86.0822299226052,39.6576021733845,0 -86.0822299226052,39.6580862838429,0 -86.0822299226052,39.6604376259059,0 -86.0821400910768,39.6629963484308,0 -86.0823197541336,39.6636187253798,0 -86.0824095856621,39.6644485548974,0 -86.0824994171905,39.665070918767,0 -86.0824994171905,39.6659007294621,0 -86.0824994171905,39.6663156303812,0 -86.082589248719,39.6672837258335,0 -86.0824994171905,39.6679060648582,0 -86.0824994171905,39.6690815788327,0 -86.0824994171905,39.669773047607,0 -86.0824994171905,39.6706719475662,0 -86.082589248719,39.6716399805961,0 -86.082589248719,39.6765490814371,0 -86.082589248719,39.6777935876443,0 -86.0824994171905,39.6806282109432,0 -86.082589248719,39.686227978414,0 -86.082589248719,39.6881635948837,0 -86.082589248719,39.6904447874873,0 -86.0824994171905,39.6934171374786,0 -86.0824994171905,39.6936936286459,0 -86.0824095856621,39.6945230955029,0 -86.0824994171905,39.6953525523926,0 -86.0824994171905,39.6963893594882,0 -86.0824994171905,39.6982555723223,0 -86.0824994171905,39.7003290844149,0 -86.0824994171905,39.7036465723861,0 -86.0792654821672,39.7035774603568,0 -86.0773790200703,39.7035774603568,0 -86.0740552544169,39.7037847983105,0 -86.0705518239101,39.7044759203232,0 -86.0668687312446,39.7057199225024,0 -86.063544964693,39.7072403398435,0 -86.0607601873118,39.7088989379779,0 -86.0585143991012,39.7108339173575,0 -86.0566279370043,39.7126997409554,0 -86.063544964693,39.7171222307042,0 -86.0740552544169,39.7239627109699,0 -86.0636347962214,39.7242390797496,0 -86.0584245675728,39.7243081717715,0 -86.0570770946464,39.7243772637241,0 -86.0558194532484,39.7243772637241,0 -86.0553702956063,39.7244463556075,0 -86.052765181282,39.7244463556075,0 -86.0494414147303,39.7245845398575,0 -86.0481837733324,39.7246536308423,0 -86.047465121105,39.7246536308423,0 -86.0455786590081,39.7247227224488,0 -86.0453989959512,39.7247227224488,0 -86.0453091644228,39.724860905454,0 -86.0449498383091,39.7247227224488,0 -86.0446803437238,39.7247227224488,0 -86.0351582017108,39.7249299968528,0 -86.0277021848516,39.7249990888733,0 -86.0273428587379,39.7250681794427,0 -86.0268937010958,39.7251372706338,0 -86.0264445425554,39.7253445437917,0 -86.0259953858115,39.7254827255508,0 -86.0253665651126,39.7255518163265,0 -86.0208749886913,39.7255518163265,0 -86.0205156625776,39.7254827255508,0 -86.0200665049355,39.7253445437917,0 -86.0197970103502,39.7251372706338,0 -86.0193478527081,39.7246536308423,0 -86.0190783581229,39.724860905454,0 -86.0180902113102,39.7255518163265,0 -86.0085680692972,39.725620906342,0 -86.0038069982907,39.725620906342,0 -85.9896136167996,39.725828178737,0 -85.9753304037801,39.7259663595268,0 -85.9722761318137,39.7260354498179,0 -85.9658980932956,39.7261736308833,0 -85.9611370222891,39.7261736308833,0 -85.9517047118045,39.7263809009257,0</coordinates></LinearRing></outerBoundaryIs></Polygon></Placemark>
<Placemark><name>Indiana Central Little League</name><styleUrl>#s</styleUrl><Polygon><outerBoundaryIs><LinearRing><coordinates>-86.1211947091821,39.7680751664514,0 -86.1212215149102,39.766021617349,0 -86.1212109606039,39.7660147696431,0 -86.1211970079709,39.7646115113993,0 -86.1211607223216,39.759978839342,0 -86.1211370553071,39.7585819025484,0 -86.1210166999237,39.7464757809196,0 -86.1209473113562,39.7377107144758,0 -86.1208574798278,39.7304570844444,0 -86.1208574798278,39.7292826154052,0 -86.1208574798278,39.7276935953435,0 -86.1208574798278,39.726726348921,0 -86.1207676482993,39.7231335979845,0 -86.1207526652987,39.7202895555332,0 -86.120632106896,39.7157920163754,0 -86.1166336112427,39.7143236844939,0 -86.1151869193932,39.7138599933752,0 -86.1143430150657,39.7134890393416,0 -86.1134589264006,39.7130562566537,0 -86.1130168807206,39.7127471245986,0 -86.1122935347959,39.7124070775307,0 -86.1119720484169,39.7121597693937,0 -86.1115300027369,39.7117269783661,0 -86.1107262845436,39.7106140744868,0 -86.109922568147,39.7091610895855,0 -86.1094001510968,39.7077389898159,0 -86.1082534345685,39.7035755735786,0 -86.1071095549198,39.6994222086923,0 -86.1060647217178,39.6951861399473,0 -86.1051093391585,39.6921930749665,0 -86.1032517102872,39.6863730457626,0 -86.1014835311604,39.6809609396926,0 -86.1012568844176,39.6801371996041,0 -86.1052267938819,39.6799368494432,0 -86.1109760117011,39.679867713673,0 -86.118791354674,39.6796603038732,0 -86.1204981537141,39.6796603038732,0 -86.1252592247206,39.6796603038732,0 -86.1319965893524,39.6795911664434,0 -86.1366678288305,39.6795220303272,0 -86.1415187313654,39.6794528934504,0 -86.1420577214342,39.6794528934504,0 -86.1426865412349,39.6793146194892,0 -86.1433153619339,39.6791072073369,0 -86.1439441826328,39.6790380707362,0 -86.1446628348602,39.6790380707362,0 -86.1489747482246,39.6790380707362,0 -86.1538256507595,39.678968933375,0 -86.158586721766,39.6788997959445,0 -86.1644257711136,39.6788306584448,0 -86.1757445436951,39.6786923839292,0 -86.1785742368405,39.6786232455305,0 -86.1870633162766,39.6784158313019,0 -86.1927227025673,39.6783466933177,0 -86.1961363006474,39.6782775559558,0 -86.2013465292961,39.6782775559558,0 -86.2108686713091,39.6782084178332,0 -86.2156297423156,39.6782084178332,0 -86.2240082687846,39.6778011444899,0 -86.2241450723209,39.6777944947424,0 -86.2241607155833,39.6778243003742,0 -86.2251936856337,39.6795060576407,0 -86.2251158924284,39.6798428355918,0 -86.2251153022352,39.6798453915689,0 -86.2248758491097,39.6808820098335,0 -86.2248793408612,39.68110240095,0 -86.2248873816813,39.6816098228582,0 -86.2248875478696,39.6816202698098,0 -86.2249354433456,39.684642806369,0 -86.2247816104465,39.684847290768,0 -86.2247169308477,39.6849332654268,0 -86.2241408511374,39.6854988936632,0 -86.2241344129117,39.6855151345739,0 -86.2237832848233,39.6864008318626,0 -86.2232469349031,39.6871193164915,0 -86.2231540041869,39.6879488754769,0 -86.223147610877,39.6880059464824,0 -86.2225224193718,39.689449246976,0 -86.2224126129048,39.6897027417779,0 -86.2224026308253,39.6898794147515,0 -86.2223331542229,39.6911090628242,0 -86.2224332166641,39.6913742758198,0 -86.2224388005919,39.691389076858,0 -86.223048286851,39.6930044937797,0 -86.2231250883162,39.693193601855,0 -86.2234455829552,39.6939827598047,0 -86.2235022882091,39.6946808693391,0 -86.2236045012171,39.6959392516456,0 -86.223207205113,39.6969174753876,0 -86.2225715320651,39.6975899978959,0 -86.2225229502762,39.6976193664472,0 -86.2214591024345,39.6982625124688,0 -86.2210480028177,39.6984299687805,0 -86.221038848985,39.6984336976916,0 -86.2201082958601,39.6988127475448,0 -86.2189958662296,39.6994852508944,0 -86.217088845289,39.7004022899787,0 -86.216929963858,39.7005856515463,0 -86.2164531713428,39.7011359123344,0 -86.215513005346,39.7017989803379,0 -86.2154156576136,39.7019448318986,0 -86.2147845273461,39.7029699344494,0 -86.2146588692075,39.7030786952994,0 -86.2141482479353,39.7035206537955,0 -86.2141405700346,39.7035272983009,0 -86.2139004261046,39.7037351506031,0 -86.2135131803518,39.7040703244601,0 -86.2124007507213,39.7049873026161,0 -86.2111529916898,39.7063989868756,0 -86.2110499441469,39.7065155724629,0 -86.2101722595715,39.7074688223975,0 -86.2096991366742,39.7079826793933,0 -86.2084277887816,39.7084717083346,0 -86.2080311736005,39.7085680618911,0 -86.2072827530012,39.7087498813942,0 -86.2069180639453,39.7088384779385,0 -86.2057929060854,39.7090548738684,0 -86.2057858408358,39.7090562325173,0 -86.2043753690585,39.7093275008138,0 -86.2022299702758,39.7099387743606,0 -86.2012764589073,39.7101832826774,0 -86.201138974448,39.7103243019014,0 -86.2005613262792,39.7109168003553,0 -86.2000051110147,39.7119559387756,0 -86.1997667340709,39.7130561854773,0 -86.1997303181659,39.7133223064573,0 -86.1996771792236,39.7137106379308,0 -86.1996756538842,39.7137217834891,0 -86.1996078149106,39.7142175375353,0 -86.1992105188064,39.7150732587374,0 -86.1986817416841,39.715553963983,0 -86.1983364679163,39.715867846553,0 -86.1979736770006,39.7161779209683,0 -86.1976213352882,39.7164790628371,0 -86.1966678239197,39.7170291519635,0 -86.1962968448601,39.7172289038738,0 -86.1961363006474,39.7173295279539,0 -86.1961363006474,39.7176601927262,0 -86.1961363006474,39.7187805919473,0 -86.1961363006474,39.7244049564502,0 -86.1961363006474,39.7276918757284,0 -86.1961363006474,39.728591741918,0 -86.1961363006474,39.7309406835273,0 -86.1958668060622,39.7319078715158,0 -86.1960468859373,39.7326695584292,0 -86.1962261321759,39.733427710938,0 -86.1962261321759,39.7342566994445,0 -86.1964956267611,39.734740272563,0 -86.1965854582896,39.7351547605151,0 -86.1965307535837,39.735617510572,0 -86.1964956267611,39.7359146486204,0 -86.1965854582896,39.736743607908,0 -86.1963825073073,39.7369170836473,0 -86.194835349673,39.7379368579548,0 -86.192404104272,39.7399454579479,0 -86.1903747166201,39.7415677465596,0 -86.1898032210126,39.7420165385548,0 -86.1884859799889,39.7430509486187,0 -86.187481332921,39.7438697865455,0 -86.1874612403031,39.7470059978035,0 -86.187481332921,39.7507599944313,0 -86.1874524853224,39.7512217888219,0 -86.1862296940659,39.7514307039505,0 -86.1816090971119,39.75139946248,0 -86.1810196711314,39.7513394043649,0 -86.1787181083214,39.7513799164386,0 -86.1759271119036,39.7514290436326,0 -86.1743835044113,39.7515296067487,0 -86.1736880987868,39.7553036587219,0 -86.1733821388892,39.7560328269832,0 -86.1739940595828,39.7617483003661,0 -86.1733190924276,39.7643698787607,0 -86.1742174077119,39.767477140916,0 -86.1654864910215,39.7672030218171,0 -86.1617824568302,39.7670867287246,0 -86.1439640407905,39.7668680698907,0 -86.1429560358202,39.7668556997034,0 -86.1394546328109,39.7669340678923,0 -86.1340140078514,39.7670558396012,0 -86.1292938551061,39.7674311648158,0 -86.1211947091821,39.7680751664514,0</coordinates></LinearRing></outerBoundaryIs></Polygon></Placemark>
<Placemark><name>Lowell Little League</name><styleUrl>#s</styleUrl><Polygon><outerBoundaryIs><LinearRing><coordinates>-86.0160340969819,39.7255667350886,0 -86.0180902113102,39.7255518163265,0 -86.0190783581229,39.724860905454,0 -86.0193478527081,39.7246536308423,0 -86.0197970103502,39.7251372706338,0 -86.0200665049355,39.7253445437917,0 -86.0205156625776,39.7254827255508,0 -86.0208749886913,39.7255518163265,0 -86.0253665651126,39.7255518163265,0 -86.0259953858115,39.7254827255508,0 -86.0264445425554,39.7253445437917,0 -86.0268937010958,39.7251372706338,0 -86.0273428587379,39.7250681794427,0 -86.0277021848516,39.7249990888733,0 -86.0351582017108,39.7249299968528,0 -86.0446803437238,39.7247227224488,0 -86.0449498383091,39.7247227224488,0 -86.0453091644228,39.724860905454,0 -86.0453989959512,39.7247227224488,0 -86.0455786590081,39.7247227224488,0 -86.0457182320504,39.7247176103632,0 -86.0505048179059,39.7245403294397,0 -86.0518713881169,39.7244835145756,0 -86.053427694194,39.7244463556075,0 -86.0557272241165,39.7243914503661,0 -86.0563214120664,39.7243772637241,0 -86.0577356334116,39.7243434964227,0 -86.06020268027,39.724284592745,0 -86.0636347962214,39.7242390797496,0 -86.0740552544169,39.7239627109699,0 -86.0801637965532,39.7283844785218,0 -86.0824994171905,39.7300425689355,0 -86.0822299226052,39.7309406835273,0 -86.0821400910768,39.7315624487919,0 -86.0822299226052,39.7326677954156,0 -86.082589248719,39.7358455689205,0 -86.0826790802474,39.7383324186749,0 -86.0827689117758,39.7456542905692,0 -86.0828587433042,39.7518012998494,0 -86.0828587433042,39.7528372578334,0 -86.0829485748326,39.7542875738039,0 -86.0829915187948,39.7578807236901,0 -86.0832334827116,39.7702515969037,0 -86.1020440224056,39.7692510298798,0 -86.1022213148084,39.7839951647136,0 -86.1022414083247,39.787932423899,0 -86.1024420173991,39.801302695725,0 -86.0992979130059,39.8029590303954,0 -86.0941775158857,39.8055814786949,0 -86.0913927394028,39.8070306835286,0 -86.086048075177,39.8098204458753,0 -86.084852897234,39.8104442986646,0 -86.0847553303127,39.8104952247786,0 -86.0843858792874,39.8106880646552,0 -86.0835474771411,39.8109456763456,0 -86.0833324743609,39.8109877756522,0 -86.0831046840627,39.8110081224796,0 -86.0829351656804,39.8110488147362,0 -86.0827709455616,39.8110935768807,0 -86.0827132566524,39.8111150677785,0 -86.082418665833,39.8112248103663,0 -86.0819644111499,39.81144149964,0 -86.0813363962398,39.8117691885893,0 -86.081089010092,39.8118982713061,0 -86.0799415048428,39.8124942409239,0 -86.0780441156388,39.8134796734482,0 -86.0780314619697,39.8134862459411,0 -86.0767912990922,39.814130334773,0 -86.0762297711912,39.8144151705755,0 -86.0759437098754,39.8145453806377,0 -86.0759402549549,39.8145468703797,0 -86.0753398021543,39.8148058007123,0 -86.074757083894,39.8149848393293,0 -86.0746828111863,39.8150108478871,0 -86.0746561779347,39.8150201733738,0 -86.0740366332394,39.8152371197862,0 -86.0721004790359,39.8158527427566,0 -86.071758734749,39.8159614034496,0 -86.0698000723577,39.8166093979138,0 -86.0684448667334,39.8170577477248,0 -86.0668579442747,39.8175827553636,0 -86.0667181583316,39.8176290015483,0 -86.0650632432875,39.8181765057118,0 -86.0647237402971,39.8182888244402,0 -86.0646495762856,39.818337651353,0 -86.0641940621645,39.8185565764904,0 -86.0623847887067,39.81942613144,0 -86.060737248831,39.8202179565052,0 -86.0592991655369,39.8209091148875,0 -86.056353647212,39.8223127063913,0 -86.0563343882306,39.8223218839307,0 -86.0543540782376,39.8232655384505,0 -86.0534931759884,39.8236757714374,0 -86.0483671661943,39.8261452497571,0 -86.0474849747711,39.8265702486029,0 -86.0459602220183,39.8273048059682,0 -86.0458481535934,39.8273554325968,0 -86.0458481535934,39.8273212908094,0 -86.0458481535934,39.8269672228688,0 -86.0458481535934,39.8257295854238,0 -86.0320884221276,39.8257215515083,0 -86.0269504997746,39.8258257826071,0 -86.0250213551252,39.8259151234231,0 -86.0200314041641,39.8259371015855,0 -86.0099179236574,39.8260438339324,0 -86.0066222078988,39.8260651807959,0 -86.0009083100399,39.8261444674123,0 -85.9952222078526,39.8261993584646,0 -85.987495143221,39.8263213385005,0 -85.9790531876081,39.8264224593301,0 -85.9754267876202,39.8264810093635,0 -85.9720138560901,39.8265141877855,0 -85.9684992721006,39.8265629791884,0 -85.9680062649945,39.8265668826095,0 -85.9676555689958,39.8265922541514,0 -85.9657089530125,39.8266000609901,0 -85.9641333619028,39.8266293359374,0 -85.9561080161726,39.8267269185448,0 -85.9531300120722,39.8267700050791,0 -85.9530716790709,39.8238833379571,0 -85.9530500117062,39.8191600048937,0 -85.9529500121471,39.8120800052008,0 -85.9529700122386,39.8084300046569,0 -85.9529300120556,39.807200004558,0 -85.952901822922,39.8067853139054,0 -85.9525800122512,39.7973750051241,0 -85.9523405115149,39.7806395049786,0 -85.9524496783815,39.7767006720629,0 -85.952390011382,39.7760400047481,0 -85.9523700121888,39.7752600050359,0 -85.9523700121888,39.7745700046935,0 -85.9523100119144,39.7729000048834,0 -85.9523100119144,39.7710300045728,0 -85.952292678921,39.7703713376313,0 -85.9522800117771,39.7684700045203,0 -85.9522300115484,39.7583700050927,0 -85.9522000114112,39.7556000047051,0 -85.9519300119727,39.7441400047733,0 -85.9518100114238,39.7409200045907,0 -85.9518200114696,39.7341100050055,0 -85.9517000118189,39.7275100045941,0 -85.9517000118189,39.726420005113,0 -85.9517047118045,39.7263809009257,0 -85.9611370222891,39.7261736308833,0 -85.9658980932956,39.7261736308833,0 -85.9722761318137,39.7260354498179,0 -85.9753304037801,39.7259663595268,0 -85.9896136167996,39.725828178737,0 -86.0038069982907,39.725620906342,0 -86.0085680692972,39.725620906342,0 -86.0160340969819,39.7255667350886,0</coordinates></LinearRing></outerBoundaryIs></Polygon></Placemark>
<Placemark><name>Southport Little League</name><styleUrl>#s</styleUrl><Polygon><outerBoundaryIs><LinearRing><coordinates>-86.0824994171905,39.6806282109432,0 -86.082589248719,39.6777935876443,0 -86.082589248719,39.6765490814371,0 -86.082589248719,39.6716399805961,0 -86.0824994171905,39.6706719475662,0 -86.0824994171905,39.669773047607,0 -86.0824994171905,39.6690815788327,0 -86.0824994171905,39.6679060648582,0 -86.082589248719,39.6672837258335,0 -86.0824994171905,39.6663156303812,0 -86.0824994171905,39.6659007294621,0 -86.0824994171905,39.665070918767,0 -86.0824095856621,39.6644485548974,0 -86.0823197541336,39.6636187253798,0 -86.0821400910768,39.6629963484308,0 -86.0822299226052,39.6604376259059,0 -86.0822299226052,39.6580862838429,0 -86.0822299226052,39.6576021733845,0 -86.0824095856621,39.6567031033928,0 -86.082589248719,39.6560806648541,0 -86.082589248719,39.6554582186354,0 -86.082589248719,39.6537291738726,0 -86.082589248719,39.6511701089446,0 -86.0826790802474,39.6506167843119,0 -86.082589248719,39.6493717899443,0 -86.0826790802474,39.6488184509187,0 -86.0826790802474,39.6470200707487,0 -86.0826790802474,39.6437690333524,0 -86.0826790802474,39.6400336116914,0 -86.0827689117758,39.6364363476201,0 -86.0886977926518,39.6362288074462,0 -86.093189369073,39.6360904462925,0 -86.0957046518689,39.6360212666496,0 -86.100375891347,39.6358829057725,0 -86.1014538696881,39.635813725922,0 -86.106304772223,39.635813725922,0 -86.1112455062864,39.6357445446187,0 -86.1141201151959,39.635675363938,0 -86.1144794413096,39.635675363938,0 -86.1159167457644,39.635675363938,0 -86.1170845556339,39.6356061838799,0 -86.1182523664018,39.635537002369,0 -86.122384615811,39.635537002369,0 -86.1267863607038,39.6354678214808,0 -86.1317270947671,39.6354678214808,0 -86.1364881657736,39.6354678214808,0 -86.1379254702284,39.6353986405233,0 -86.1394526062116,39.6353986405233,0 -86.1407102476096,39.6352602784008,0 -86.1412492367801,39.6353294594967,0 -86.1456509816729,39.6352602784008,0 -86.1512205364352,39.6351910979276,0 -86.1548137975722,39.6351219153098,0 -86.1583172271808,39.6351219153098,0 -86.1594850370503,39.6351219153098,0 -86.1602935208061,39.6350527346982,0 -86.1625393090167,39.6350527346982,0 -86.1649647602842,39.6349835533256,0 -86.1688275160064,39.6349143718838,0 -86.1731394293708,39.6348451903728,0 -86.1774513427352,39.6347068278351,0 -86.1815835930427,39.6346376454247,0 -86.1823022452701,39.6346376454247,0 -86.1911955665841,39.6344992817801,0 -86.1940701745954,39.634430099854,0 -86.1964057952327,39.634430099854,0 -86.1986515834434,39.6343609178587,0 -86.2045804643194,39.6343609178587,0 -86.2056584426604,39.6342917357942,0 -86.2113178289512,39.6342917357942,0 -86.2181450251114,39.6341533714576,0 -86.2205704763789,39.6340841898774,0 -86.2238942429306,39.6340150068443,0 -86.2274875040676,39.6340150068443,0 -86.2325180696594,39.6338766419542,0 -86.2342248686994,39.6338766419542,0 -86.2375486352511,39.6360904462925,0 -86.2383571190069,39.6379582898681,0 -86.2386266135922,39.6410712499424,0 -86.2390757712344,39.6457750109217,0 -86.2384469514337,39.6505476185079,0 -86.2354825100974,39.6548357675032,0 -86.2348536893984,39.657463856377,0 -86.2363808253816,39.6613366473183,0 -86.2362909938532,39.6629963484308,0 -86.2359316677395,39.664517705409,0 -86.2361113307963,39.6660390309673,0 -86.2374588037227,39.6679752126012,0 -86.2342248686994,39.6690815788327,0 -86.2338655425857,39.6698421948644,0 -86.2329672273015,39.6706719475662,0 -86.2318892489604,39.6715708358295,0 -86.2309909336761,39.6719165589703,0 -86.2260501996128,39.6732302904348,0 -86.2240739059874,39.6747514234625,0 -86.2241637384142,39.6777935876443,0 -86.2156297423156,39.6782084178332,0 -86.2108686713091,39.6782084178332,0 -86.2013465292961,39.6782775559558,0 -86.1961363006474,39.6782775559558,0 -86.1927227025673,39.6783466933177,0 -86.1870633162766,39.6784158313019,0 -86.1785742368405,39.6786232455305,0 -86.1757445436951,39.6786923839292,0 -86.1644257711136,39.6788306584448,0 -86.158586721766,39.6788997959445,0 -86.1538256507595,39.678968933375,0 -86.1489747482246,39.6790380707362,0 -86.1446628348602,39.6790380707362,0 -86.1439441826328,39.6790380707362,0 -86.1433153619339,39.6791072073369,0 -86.1426865412349,39.6793146194892,0 -86.1420577214342,39.6794528934504,0 -86.1415187313654,39.6794528934504,0 -86.1366678288305,39.6795220303272,0 -86.1319965893524,39.6795911664434,0 -86.1252592247206,39.6796603038732,0 -86.1204981537141,39.6796603038732,0 -86.118791354674,39.6796603038732,0 -86.1109760117011,39.679867713673,0 -86.1052267938819,39.6799368494432,0 -86.099747070648,39.6802133959799,0 -86.0975012815391,39.6801442584125,0 -86.09678263021,39.6802133959799,0 -86.0921113907319,39.680282531404,0 -86.0824994171905,39.6806282109432,0</coordinates></LinearRing></outerBoundaryIs></Polygon></Placemark>
<Placemark><name>Speedway Little League</name><styleUrl>#s</styleUrl><Polygon><outerBoundaryIs><LinearRing><coordinates>-86.2620130797161,39.8102688054685,0 -86.2616344541968,39.8100631534562,0 -86.2613858616116,39.8097987454839,0 -86.261209934648,39.8094814533326,0 -86.2611946363387,39.8090730843694,0 -86.260666855448,39.809055456535,0 -86.2558384197783,39.8096459744515,0 -86.2554611282572,39.8096459744515,0 -86.2549864144436,39.8096459744515,0 -86.2548708210294,39.8096459744515,0 -86.2544989526377,39.809599900932,0 -86.2543965824246,39.8095872175457,0 -86.2540342550395,39.8094919188676,0 -86.2534847816313,39.8093473975951,0 -86.2529891658176,39.8092170417428,0 -86.2524567729762,39.8092228314157,0 -86.2519464032323,39.8092283816345,0 -86.2514211439126,39.8092340933288,0 -86.2508061662521,39.809240781469,0 -86.250368755879,39.8092455374181,0 -86.2499620346509,39.809249960754,0 -86.249496506111,39.8092550237827,0 -86.2489155144127,39.8092613413544,0 -86.2484914844457,39.8092659523878,0 -86.2479993693667,39.8092713045536,0 -86.2474756290981,39.8092769996828,0 -86.2467851660043,39.8092845083092,0 -86.2460415531884,39.8092925959015,0 -86.2452945725886,39.8093007173062,0 -86.2445775346337,39.8093085157583,0 -86.2440414191738,39.8093143454475,0 -86.2434222814152,39.8093210784342,0 -86.2427143460892,39.8093287775144,0 -86.2420139036109,39.8093363944758,0 -86.2412985131663,39.8093441749821,0 -86.2406968108092,39.8093507175074,0 -86.2400485838051,39.8093577665413,0 -86.2398864190317,39.8093595303523,0 -86.2398491299642,39.8046010653311,0 -86.2378154501619,39.8046484423758,0 -86.2375400859846,39.8045720515248,0 -86.2360179338546,39.8039021598958,0 -86.2359337949501,39.8037963869367,0 -86.2356278350525,39.8037258715403,0 -86.2354901529638,39.8035965926655,0 -86.2350994217478,39.8034315946854,0 -86.2321666586016,39.8021451318479,0 -86.2317867125589,39.8021092639187,0 -86.2314815925861,39.8020855624482,0 -86.2309675199866,39.8020482576159,0 -86.2304357379996,39.8020096663412,0 -86.2301970403572,39.8019923458788,0 -86.229998166828,39.8019027289623,0 -86.2296654353383,39.8016456334316,0 -86.2293881586477,39.8015516108663,0 -86.2290783737236,39.8015119447561,0 -86.2289120084279,39.8015251665653,0 -86.2284454180794,39.8013136138617,0 -86.2280706175866,39.8012019596141,0 -86.2276403595997,39.8009962818605,0 -86.2276709562183,39.8009478008178,0 -86.2276862554259,39.8008567145864,0 -86.2277034653501,39.8008434926486,0 -86.2277055979506,39.8006102455986,0 -86.2276793132454,39.8003094423918,0 -86.2276597910576,39.799940095901,0 -86.2276499221659,39.7997533869652,0 -86.2276613954487,39.7996549523531,0 -86.2276174139324,39.799503629524,0 -86.2275887298271,39.7994463326245,0 -86.2274825983678,39.7993275997474,0 -86.2274357494291,39.7992744409492,0 -86.2273018923669,39.7991554379192,0 -86.2272885065709,39.7991201778504,0 -86.2271240528901,39.7989923596906,0 -86.2267897089244,39.7988368826356,0 -86.2267607247818,39.7988234049457,0 -86.2266058327689,39.7986985243046,0 -86.2264811043866,39.7986287359556,0 -86.2264299058054,39.798600089563,0 -86.2262731012792,39.7982930293827,0 -86.2263238839405,39.7980305514419,0 -86.2263572401837,39.7978581489439,0 -86.2260971734173,39.7973057289319,0 -86.2261124717266,39.7971117927686,0 -86.2260742268517,39.7971000388351,0 -86.2261029316183,39.7970693198546,0 -86.2262883986902,39.7968708415599,0 -86.2262348564043,39.7967297964909,0 -86.2262578029699,39.7964947209631,0 -86.2261660149108,39.7963066595483,0 -86.2262042597857,39.7961303517206,0 -86.2261671072622,39.7957161223122,0 -86.2261389917904,39.7954026537982,0 -86.2261065482356,39.7950409298692,0 -86.2260771041556,39.7947126428383,0 -86.2260475154467,39.7943827446541,0 -86.2260356298372,39.7942502228234,0 -86.2260321569503,39.7942115043136,0 -86.2260415218871,39.7941481863615,0 -86.2260550271591,39.7940568688731,0 -86.2261086475984,39.7936943185704,0 -86.2261736640655,39.7935003729141,0 -86.2263766878113,39.7931941603443,0 -86.2264796239631,39.7929919953861,0 -86.2264910972459,39.7928744516802,0 -86.2266654593442,39.7925129367112,0 -86.2268781372844,39.792090505481,0 -86.2270188790349,39.7918165458371,0 -86.2270265281896,39.7916578574184,0 -86.2271183162487,39.7914932925681,0 -86.2271649882193,39.7912243286382,0 -86.2272143991532,39.7909395789814,0 -86.2272845333224,39.7905354036407,0 -86.2273509628393,39.7901525728986,0 -86.2274195096854,39.789757540308,0 -86.2275466599257,39.7891129325412,0 -86.228078625169,39.7878145954343,0 -86.2281842472835,39.7875763465679,0 -86.2282274221127,39.7874789589499,0 -86.2282372119527,39.7871128424537,0 -86.228245771999,39.7867927293161,0 -86.2282503686783,39.7866208129201,0 -86.2283498058921,39.7863445576524,0 -86.2285915290604,39.7860217073478,0 -86.2288266909338,39.7857076203219,0 -86.2289923223059,39.7854863974734,0 -86.2289999768504,39.7854774683586,0 -86.2290375497855,39.7854336449232,0 -86.2294206668812,39.7849867787596,0 -86.2297959641423,39.7846786278568,0 -86.2303239345776,39.784286314754,0 -86.2305144744359,39.7840521873109,0 -86.2307033937334,39.782283520434,0 -86.2308204343335,39.7814041138709,0 -86.2308548550802,39.7804518385939,0 -86.2308166102054,39.7803225166614,0 -86.2308089610507,39.7802167074384,0 -86.2306406832418,39.7799492444529,0 -86.2306368582153,39.779911035666,0 -86.2301549713541,39.7795671528678,0 -86.2301129005544,39.7794143153635,0 -86.2300058159826,39.7792350253393,0 -86.2298841346858,39.778928055449,0 -86.2298331328355,39.77879939065,0 -86.2297113293678,39.7785884004321,0 -86.2299484477719,39.7778888633732,0 -86.2296730835946,39.7774156423848,0 -86.2295889446901,39.7773392219765,0 -86.2293253735958,39.776931319397,0 -86.2290936720329,39.7766146875033,0 -86.2289770239966,39.7765088725795,0 -86.2284071732044,39.7761150043742,0 -86.2281241598725,39.7760650366211,0 -86.228108707053,39.7738063838146,0 -86.2282676064503,39.7717030823902,0 -86.2283605470479,39.7704727983018,0 -86.2283817724415,39.7701918445305,0 -86.2283733363626,39.7692910529229,0 -86.2283598265991,39.7679463273868,0 -86.2283517184053,39.7671391977375,0 -86.2281069499482,39.7665394944514,0 -86.227663307962,39.7659868229586,0 -86.2267224799069,39.7651695654111,0 -86.2282271382451,39.765059874316,0 -86.2295948502148,39.7653558779475,0 -86.2305641988818,39.7654375339693,0 -86.2312546934166,39.7656927064277,0 -86.232529454009,39.7665194638349,0 -86.2328083072428,39.7668358749459,0 -86.2332597852334,39.7674584839515,0 -86.2335784751569,39.7682648054495,0 -86.2342158550039,39.7710205198401,0 -86.2347470045769,39.7724289534702,0 -86.2356499596596,39.7730821297498,0 -86.239527355226,39.7749803894899,0 -86.2417316268975,39.7758376506106,0 -86.243590652649,39.7762050449653,0 -86.2466978794031,39.7770418808013,0 -86.2505221593834,39.7782460899218,0 -86.2515579034314,39.7785114207403,0 -86.257666127564,39.7792308713878,0 -86.2586952303672,39.7794910979813,0 -86.2592861349746,39.779802345614,0 -86.2702477975862,39.7794726016764,0 -86.2702594801765,39.7800142544328,0 -86.2702754279677,39.7807005799764,0 -86.2702855771338,39.7811373845102,0 -86.270299168644,39.781722276314,0 -86.2703302162169,39.7830584183896,0 -86.2703664865948,39.7836947568813,0 -86.2704585091142,39.784755486748,0 -86.270522855438,39.7854572126903,0 -86.2709687441108,39.7876441574208,0 -86.2716846160524,39.7896382095017,0 -86.273930404263,39.7940557624496,0 -86.2749185510757,39.7970926655356,0 -86.2751694325683,39.8007928623622,0 -86.2751857154311,39.8011181009663,0 -86.2753677087178,39.8057885098271,0 -86.2754409097354,39.8086771998659,0 -86.2720839522306,39.8087366924774,0 -86.2700206334138,39.8092589067948,0 -86.26801149828,39.8092939629253,0 -86.2680038500236,39.8099917625896,0 -86.2679381220909,39.8101145456426,0 -86.2678051732254,39.8102361809098,0 -86.2676333848004,39.8102935557658,0 -86.2673241649166,39.8103199483905,0 -86.2659774807111,39.8103338723642,0 -86.2627156413201,39.8103653865751,0 -86.2623687586697,39.8103686926372,0 -86.2620130797161,39.8102688054685,0</coordinates></LinearRing></outerBoundaryIs></Polygon></Placemark>
</Document>
</kml>