<?xml version="1.0" encoding="UTF-8"?>
<kml xmlns="http://www.opengis.net/kml/2.2">
<Document>
<name>Indiana District 8 Boundaries</name>
<description>All Little League boundaries for Indiana District 8</description>
<Style id="s"><LineStyle><color>ffc06515</color><width>2</width></LineStyle><PolyStyle><color>33c06515</color></PolyStyle></Style>
<Placemark><name>Avon Ll</name><styleUrl>#s</styleUrl><Polygon><outerBoundaryIs><LinearRing><coordinates>-86.3265716799198,39.7241699876585,0 -86.3264818483914,39.7196097565791,0 -86.3264888768101,39.7186833571498,0 -86.3366988759042,39.718541121619,0 -86.3361514542481,39.7164435855925,0 -86.3360869606006,39.7106142251372,0 -86.3358612337326,39.7076869565592,0 -86.3356032591426,39.7056030625833,0 -86.3354742718475,39.6977630876212,0 -86.3354742718475,39.6920810308399,0 -86.3345068689314,39.6903440640554,0 -86.3325720622008,39.6885574239753,0 -86.3305082690736,39.6864977678921,0 -86.3292183988182,39.6851825335382,0 -86.3504045269932,39.6759255536173,0 -86.3706232531504,39.6681318522194,0 -86.3820386098964,39.6636389055352,0 -86.384940819543,39.6622735873815,0 -86.386553158036,39.6612309624254,0 -86.3921640963868,39.6571844371824,0 -86.3948405782672,39.6552976323127,0 -86.3997420873937,39.6519211166868,0 -86.4015389667955,39.6508655413208,0 -86.4037594737191,39.6497842011909,0 -86.4120911198084,39.6465693070361,0 -86.4123947782222,39.6473584312499,0 -86.4141408183688,39.6475630177182,0 -86.4154693269612,39.6484836486427,0 -86.4174431106937,39.6500910698996,0 -86.4194738305471,39.6505294507147,0 -86.4207454030185,39.6511724052297,0 -86.4211249771587,39.6526628663149,0 -86.4206505094834,39.6534957571242,0 -86.4213337420375,39.6539925641285,0 -86.4210490623307,39.6553806836616,0 -86.4218271884198,39.6564473241425,0 -86.4213147633305,39.6575723936072,0 -86.4226432719229,39.6583467812137,0 -86.4235732276681,39.65877049944,0 -86.4236301637891,39.6595448736226,0 -86.4241425888784,39.6598663097012,0 -86.4250725446236,39.6597202025781,0 -86.4255849697128,39.6592672685333,0 -86.4256419058339,39.6585513351645,0 -86.4262871809739,39.6582445040112,0 -86.4266667551141,39.65894583036,0 -86.4273310089612,39.6595302628562,0 -86.4283748369484,39.6590627167013,0 -86.4298172177829,39.6593549334188,0 -86.4305194290439,39.6603922920957,0 -86.4310508328402,39.660669892666,0 -86.4318099802223,39.6605091766822,0 -86.4324932136747,39.6606845031915,0 -86.4329676804516,39.6613273625615,0 -86.4332713397638,39.6616487896583,0 -86.4343721038721,39.661546518034,0 -86.4350932938402,39.6616926206045,0 -86.4351122725472,39.6630075353726,0 -86.4349794215981,39.6634458342743,0 -86.4350932938402,39.663986399944,0 -86.4356246976364,39.6641178882512,0 -86.4366875043307,39.6634750541483,0 -86.4375605239548,39.6636795929206,0 -86.4386992454772,39.6638403015313,0 -86.4390029047893,39.6647022770094,0 -86.4383196713369,39.6646292285984,0 -86.4373517581777,39.6647022770094,0 -86.4374276730058,39.6654035371336,0 -86.4386802667701,39.666470023624,0 -86.4394773715662,39.6663239304625,0 -86.4409577098147,39.6672881389284,0 -86.4410715820568,39.6687782525042,0 -86.4421533674581,39.6696547750114,0 -86.4422482609931,39.671889857451,0 -86.441375241369,39.6728832041362,0 -86.4433680038084,39.6741248668875,0 -86.446233785872,39.6741540822454,0 -86.4463666368211,39.6748260313762,0 -86.4472586351522,39.676140696214,0 -86.4471637425155,39.6785070290368,0 -86.449270377197,39.6801429648738,0 -86.449934631044,39.6821878305219,0 -86.4495930143179,39.6841742134185,0 -86.449213441076,39.68321024064,0 -86.4482075705028,39.6829035189866,0 -86.4466892748402,39.6838382847975,0 -86.4475433157574,39.6863650100929,0 -86.4468031470823,39.6866571113408,0 -86.4465374451841,39.68732893883,0 -86.4468426226492,39.6879487669453,0 -86.4467333057639,39.6899209638966,0 -86.4474499403752,39.6909023676742,0 -86.4483001859102,39.6924632385978,0 -86.4485066744581,39.6939586506112,0 -86.4512274594517,39.6949306510824,0 -86.4529400966428,39.6963605889926,0 -86.4546527338339,39.6964166639382,0 -86.4559402487066,39.6972017146138,0 -86.4567297618402,39.6990428096882,0 -86.4574585434708,39.7000427749031,0 -86.4581751789804,39.7002483734577,0 -86.4587582044644,39.7008838556498,0 -86.4586731798211,39.7014539154767,0 -86.4584181067894,39.7025286061997,0 -86.4583087890059,39.7032481725408,0 -86.4577864959232,39.7038088681331,0 -86.4568633718657,39.704631213796,0 -86.4566690303371,39.7059207811379,0 -86.4572399097003,39.7066216227705,0 -86.4568390796238,39.7074159015786,0 -86.4573613727065,39.7082755813515,0 -86.4580294228339,39.7084531224661,0 -86.4582116182416,39.7099201557163,0 -86.4584909844135,39.7105088291792,0 -86.4569172276636,39.7179514159647,0 -86.4571867222489,39.7471738268694,0 -86.4575460483626,39.7761767289111,0 -86.4570070591921,39.7763838485582,0 -86.4565579024483,39.7990251704094,0 -86.4487005704223,39.7990251704094,0 -86.4384119328082,39.7990251704094,0 -86.4385017643366,39.8059265309256,0 -86.424398214374,39.8062715793544,0 -86.4208947847654,39.8063405897984,0 -86.414876072361,39.8064095994832,0 -86.4048149411775,39.8066856375294,0 -86.4006826908699,39.8067546468677,0 -86.3860401517368,39.8070306835286,0 -86.381638406844,39.8070996925206,0 -86.3768773358375,39.8071687014434,0 -86.373823063871,39.807237710987,0 -86.3697806450919,39.807306718391,0 -86.3673551938245,39.807306718391,0 -86.3627737858748,39.8074447364418,0 -86.3554076014423,39.8075827535254,0 -86.3500177088386,39.8076517619633,0 -86.3458854594294,39.8077207703319,0 -86.345256637832,39.8076517619633,0 -86.3412142190529,39.8077897786313,0 -86.3345666859496,39.8078587868614,0 -86.3270208384602,39.8079968024237,0 -86.3267513429766,39.8004745134285,0 -86.3268411736067,39.8002674669861,0 -86.3266615114482,39.7951601063593,0 -86.3265716799198,39.7899833403514,0 -86.3265405604817,39.7882855539694,0 -86.3264818483914,39.7850823108992,0 -86.3263920168629,39.7805951468881,0 -86.3263920168629,39.7792834588627,0 -86.3266615114482,39.7787311603074,0 -86.3269310060335,39.7779027069254,0 -86.3269310060335,39.7685128638054,0 -86.3267513429766,39.7600885323162,0 -86.3266615114482,39.7503509308404,0 -86.3266615114482,39.7430986319066,0 -86.3265716799198,39.7355001659287,0 -86.3264818483914,39.7294207899627,0 -86.3265716799198,39.7241699876585,0</coordinates></LinearRing></outerBoundaryIs></Polygon></Placemark>
<Placemark><name>Brownsburg Ll</name><styleUrl>#s</styleUrl><Polygon><outerBoundaryIs><LinearRing><coordinates>-86.3261225222776,39.924177020977,0 -86.3261225222776,39.9217657824298,0 -86.3260326907492,39.9190788758827,0 -86.3260326907492,39.9152894668853,0 -86.3260326907492,39.910604090374,0 -86.3260326907492,39.9096394149366,0 -86.3259428592208,39.9059873029901,0 -86.3260326907492,39.9024039109622,0 -86.3260326907492,39.8998540744136,0 -86.3260326907492,39.8951676428502,0 -86.3260326907492,39.8912390623391,0 -86.3259428592208,39.8844841355776,0 -86.3260326907492,39.8821404333545,0 -86.3260326907492,39.8778664184372,0 -86.3260326907492,39.8734542533475,0 -86.3258530276924,39.8715238415644,0 -86.3254937015787,39.8677318024189,0 -86.3254038700502,39.8665596753968,0 -86.3254038700502,39.8662149283439,0 -86.3255835331071,39.8661459794149,0 -86.328098815903,39.8660770297271,0 -86.328098815903,39.8626984094529,0 -86.3280089843746,39.8580783957274,0 -86.3280089843746,39.8556648316778,0 -86.3278293213177,39.8519408806428,0 -86.3278293213177,39.8499408976252,0 -86.3277394897893,39.8446303144424,0 -86.3276496582609,39.8415265377748,0 -86.3275598267324,39.8364222439812,0 -86.327469995204,39.8306967048383,0 -86.3273801636756,39.8263504955943,0 -86.3272903321472,39.8226939478781,0 -86.3272005006187,39.8176572529323,0 -86.3271106690903,39.8154492699739,0 -86.3271106690903,39.8114471193743,0 -86.3270208384602,39.8079968024237,0 -86.3345666859496,39.8078587868614,0 -86.3412142190529,39.8077897786313,0 -86.345256637832,39.8076517619633,0 -86.3458854594294,39.8077207703319,0 -86.3500177088386,39.8076517619633,0 -86.3554076014423,39.8075827535254,0 -86.3627737858748,39.8074447364418,0 -86.3673551938245,39.807306718391,0 -86.3697806450919,39.807306718391,0 -86.373823063871,39.807237710987,0 -86.3768773358375,39.8071687014434,0 -86.381638406844,39.8070996925206,0 -86.3860401517368,39.8070306835286,0 -86.4006826908699,39.8067546468677,0 -86.4048149411775,39.8066856375294,0 -86.414876072361,39.8064095994832,0 -86.4208947847654,39.8063405897984,0 -86.424398214374,39.8062715793544,0 -86.4385017643366,39.8059265309256,0 -86.4386814273935,39.8129652036677,0 -86.4385915958651,39.8132412153917,0 -86.4385915958651,39.8138622377184,0 -86.4386814273935,39.8157252703429,0 -86.4385915958651,39.8168982654112,0 -86.4386814273935,39.8175192553855,0 -86.4387712589219,39.8181402383688,0 -86.4387712589219,39.8206241176407,0 -86.4388610904503,39.8221419999342,0 -86.4388610904503,39.8231768999858,0 -86.4389509219788,39.8283511657491,0 -86.4391305850356,39.8352495815102,0 -86.4392204174624,39.8393882984243,0 -86.4392204174624,39.8426301184414,0 -86.4346390086144,39.842699092377,0 -86.4307762528921,39.8427680655536,0 -86.4298779376079,39.8440095708846,0 -86.4297881060794,39.8443544294928,0 -86.4297881060794,39.844906199663,0 -86.4299677691363,39.8453889949246,0 -86.4300576006647,39.8457338466042,0 -86.4298779376079,39.8462166353561,0 -86.4299677691363,39.8469752983092,0 -86.4300576006647,39.8480098249382,0 -86.4299677691363,39.8487684666962,0 -86.4302372637216,39.8492512347979,0 -86.4300576006647,39.8500098635269,0 -86.4300576006647,39.8504926228985,0 -86.4301474321932,39.854837304464,0 -86.4302372637216,39.8576646479185,0 -86.4304169267784,39.8638016518468,0 -86.4302372637216,39.8642153619646,0 -86.4299677691363,39.8644222164327,0 -86.4297881060794,39.8646980214202,0 -86.4296982754494,39.8651117268226,0 -86.4296982754494,39.8655254297304,0 -86.4298779376079,39.8660770297271,0 -86.4300576006647,39.8666975744224,0 -86.4300576006647,39.8696623216069,0 -86.4300576006647,39.8720753933319,0 -86.4301474321932,39.8755224913984,0 -86.4302372637216,39.8796587803951,0 -86.4302372637216,39.8830365646781,0 -86.4304169267784,39.8942027486798,0 -86.4306864213637,39.9088125388724,0 -86.4307762528921,39.9161162647633,0 -86.4308660844206,39.9197678359947,0 -86.4308660844206,39.9234881045394,0 -86.4120014634514,39.9236258883815,0 -86.4093065175987,39.9236258883815,0 -86.3977182504319,39.9237636719463,0 -86.3835248689409,39.9237636719463,0 -86.3690619928645,39.9239014559228,0 -86.3552279365888,39.924039238933,0 -86.3446278171331,39.9241081296452,0 -86.3402260722403,39.9241081296452,0 -86.3334887076084,39.924177020977,0 -86.33169207704,39.924177020977,0 -86.3302547725852,39.924177020977,0 -86.3261225222776,39.924177020977,0</coordinates></LinearRing></outerBoundaryIs></Polygon></Placemark>
<Placemark><name>Clinton Little League</name><styleUrl>#s</styleUrl><Polygon><outerBoundaryIs><LinearRing><coordinates>-87.5317514652623,40.1443427668815,0 -87.5314668017251,40.1473347420436,0 -87.5314384050806,40.1478216738367,0 -87.5314396384676,40.148126762587,0 -87.5313765938026,40.1481070610985,0 -87.5313014407459,40.1480835761368,0 -87.531100012408,40.1480500048911,0 -87.5309600117676,40.1480400051322,0 -87.5303200124332,40.1480400051322,0 -87.529990011822,40.1480400051322,0 -87.526680011952,40.1480700050909,0 -87.5000200121688,40.1483900047414,0 -87.4904600124548,40.1483600049241,0 -87.4904100122261,40.1461700051292,0 -87.4903600119974,40.1419595049681,0 -87.490480011648,40.1340000051078,0 -87.490480011648,40.1315500045923,0 -87.4904100122261,40.1274100048013,0 -87.4712550117396,40.1273200049917,0 -87.4501600122603,40.1273500051704,0 -87.4066700118464,40.1275100052131,0 -87.4066900119379,40.1264500050392,0 -87.4067600122581,40.1256200048276,0 -87.4070600118338,40.122960005146,0 -87.4074400117754,40.120960004762,0 -87.4077600123409,40.1186000045731,0 -87.4075400122329,40.1163300049594,0 -87.4074800119584,40.1153100047291,0 -87.4073100120791,40.113260005019,0 -87.4072400117589,40.1105200051505,0 -87.4074000115925,40.1087000048669,0 -87.407940012266,40.1064900048154,0 -87.4096700120949,40.1040500050623,0 -87.412020012065,40.101060005162,0 -87.4129900120106,40.0993600046731,0 -87.4136200121976,40.0963900051056,0 -87.4136900116195,40.0925100049649,0 -87.4133400118151,40.0908900047029,0 -87.412610012069,40.0892300050933,0 -87.4121800118986,40.0881200052031,0 -87.4121400117156,40.0865300045493,0 -87.4127800119483,40.0840100046487,0 -87.4136400122891,40.0793500046931,0 -87.4152400124216,40.0748300051955,0 -87.4159700121677,40.0725000045388,0 -87.4162100123672,40.0653800047186,0 -87.4167100119595,40.0619100047042,0 -87.4174400117056,40.0586800046561,0 -87.4186100116678,40.0561500045823,0 -87.4210100118666,40.0539200050657,0 -87.4259200118691,40.0513000050044,0 -87.4290600118597,40.049940004937,0 -87.4306800120838,40.0487000051721,0 -87.4315000122416,40.0477500046819,0 -87.431520012333,40.0466300051011,0 -87.4308600120089,40.0450600049398,0 -87.4288800119347,40.0433100047459,0 -87.4257900121727,40.041830004695,0 -87.4246900116325,40.0411200046896,0 -87.4242200121774,40.0398700048856,0 -87.4250800116198,40.0382300045884,0 -87.4273300120308,40.0364000051005,0 -87.4295700123961,40.0348900046476,0 -87.4313800116926,40.0329300048203,0 -87.4337900119372,40.0290500049557,0 -87.4350100121281,40.0262900050817,0 -87.4354000121155,40.0235100046176,0 -87.4354800115831,40.0188200051826,0 -87.4352000120989,40.0165500050942,0 -87.4348000120658,40.0128500051697,0 -87.4344600123071,40.010200005129,0 -87.4340900124112,40.0062800049448,0 -87.4339600118165,40.0042600046232,0 -87.4336200120579,40.0020300049639,0 -87.4333400116753,40.0010700046239,0 -87.4332000119332,40.0000400046896,0 -87.4335600117834,39.9969800050881,0 -87.433390011904,39.9941900049839,0 -87.4327200124324,39.9926000051249,0 -87.4314900121958,39.9903600050438,0 -87.4302900120964,39.9893500046771,0 -87.429090011997,39.9884300049954,0 -87.4282700118392,39.9876000048179,0 -87.427730012064,39.9867000051123,0 -87.4275400120931,39.9859000051325,0 -87.4273900123053,39.9819400047683,0 -87.4277000119267,39.9802000047192,0 -87.4280600117769,39.9783700045721,0 -87.428540012176,39.9765900051764,0 -87.4291900124544,39.974840004769,0 -87.4297000120924,39.9732100048441,0 -87.4304800120672,39.9710400051546,0 -87.4313200123165,39.9693400051395,0 -87.4317300123953,39.9686900051378,0 -87.4339200116336,39.9663200049772,0 -87.4362200122732,39.9644200050844,0 -87.4375800122062,39.9635200050777,0 -87.4386000123806,39.9628700048195,0 -87.4395300121432,39.9621100049329,0 -87.4401800124216,39.9611800051112,0 -87.4402600118893,39.960300004753,0 -87.4398400117646,39.9594900049452,0 -87.4393900124011,39.9590600049312,0 -87.4383800122725,39.9587000045694,0 -87.4382000123474,39.9585800047162,0 -87.4365500119862,39.9576400048927,0 -87.4358400123316,39.957030004958,0 -87.4348000120658,39.9563600049115,0 -87.4338400121659,39.9559100049878,0 -87.432400011867,39.9554400045228,0 -87.4314000117841,39.9550900049499,0 -87.4302300118219,39.954830004934,0 -87.4288800119347,39.9548000051864,0 -87.4265800121933,39.9552500048392,0 -87.4256900117153,39.9555900051686,0 -87.4238100120986,39.9565000045593,0 -87.4231900119574,39.9566400046091,0 -87.4226800123194,39.956650004946,0 -87.4220800122696,39.9563900046634,0 -87.4217100123737,39.9560500048682,0 -87.421440012037,39.9556800047096,0 -87.42052001232,39.9540000049963,0 -87.420220011846,39.9524500047262,0 -87.419190011626,39.9524500047262,0 -87.4158300124256,39.9525600047616,0 -87.3749200121356,39.952480004816,0 -87.3706800116047,39.9525500052039,0 -87.3436600119714,39.9528000047255,0 -87.338560011998,39.952750005032,0 -87.3370300121856,39.9527600045605,0 -87.3329400123409,39.9527400048135,0 -87.3318400118006,39.9527600045605,0 -87.3175300119176,39.952750005032,0 -87.3164000121384,39.9527600045605,0 -87.2981700122901,39.952770004776,0 -87.2906700121179,39.9527900052028,0 -87.2900200118394,39.9527900052028,0 -87.2851600120656,39.9527900052028,0 -87.2805100123542,39.9528200051435,0 -87.2803100123376,39.9528200051435,0 -87.279550011556,39.9528200051435,0 -87.279080012101,39.9528200051435,0 -87.2768500117814,39.9528200051435,0 -87.2748900117987,39.9528200051435,0 -87.2738900117159,39.9528200051435,0 -87.271570011883,39.9528400048671,0 -87.2614100121193,39.9528700047858,0 -87.2500200121189,39.952850005071,0 -87.2450800119792,39.9529800048343,0 -87.2421625830749,39.9529900050178,0 -87.2235020117277,39.9531400048395,0 -87.1902900119766,39.953380004834,0 -87.1902900119766,39.9532300048501,0 -87.1902700118851,39.9531500049995,0 -87.1902100116106,39.9531000048733,0 -87.1901200120973,39.9530700050554,0 -87.1897900123843,39.9530600048837,0 -87.18575001187,39.9530800045371,0 -87.1853500118368,39.9530700050554,0 -87.1819100122705,39.9530600048837,0 -87.1803300122295,39.9530300050483,0 -87.17942001166,39.9530300050483,0 -87.1792000115519,39.9530500047105,0 -87.1790300116726,39.9530900047059,0 -87.178950012205,39.9531200052036,0 -87.1788600117933,39.9531700046266,0 -87.1787200120512,39.953300005159,0 -87.1603300123692,39.9531800047823,0 -87.1551300119384,39.9530800045371,0 -87.1550500115724,39.9530900047059,0 -87.1524600123011,39.9530700050554,0 -87.1512200120187,39.9530800045371,0 -87.1496500120234,39.9530700050554,0 -87.148960011562,39.9530000051997,0 -87.1485500123814,39.9530100046916,0 -87.1484300118325,39.9530400045358,0 -87.1481000121196,39.9530500047105,0 -87.1457000119207,39.9530600048837,0 -87.1417961663591,39.9530484670168,0 -87.1398300120184,39.9530300050483,0 -87.1390200119063,39.9530400045358,0 -87.1385600115987,39.9530700050554,0 -87.1364981750021,39.9530375351356,0 -87.1288900122798,39.9530100046916,0 -87.1260600119106,39.9529900050178,0 -87.1259740116969,39.9530180051105,0 -87.12594001226,39.9530500047105,0 -87.125900012077,39.9531100050392,0 -87.125900012077,39.9531500049995,0 -87.1143500122431,39.9530400045358,0 -87.1007200118775,39.9530900047059,0 -87.0968367143796,39.9530580106336,0 -87.0960344703218,39.953051400548,0 -87.0910100123756,39.9530100046916,0 -87.0900100122928,39.9529900050178,0 -87.0909934501367,39.9507800219001,0 -87.0910228394196,39.9493606226144,0 -87.0910379868119,39.9486290639737,0 -87.0913074813972,39.9326501254664,0 -87.0913074813972,39.9263815069947,0 -87.0912176498687,39.9180454209953,0 -87.0913074813972,39.881795765986,0 -87.091487144454,39.8672491649952,0 -87.0834921384242,39.8670423183606,0 -87.0610342563181,39.8670423183606,0 -87.0521409350041,39.8669733709527,0 -87.0330068194497,39.8669044214069,0 -87.0253711395336,39.8667665234866,0 -87.0091116328888,39.8666286259785,0 -87.0096506220593,39.8506305535239,0 -87.0098302851162,39.8448372286342,0 -87.0101896112299,39.8301448204928,0 -87.0101896112299,39.8255916054672,0 -87.0102794427583,39.8200031564119,0 -87.0103692742867,39.8156562706996,0 -87.010638768872,39.801302695725,0 -87.010638768872,39.7860487388432,0 -87.0107286004004,39.7667176008944,0 -87.0109980949857,39.7462759224155,0 -87.0114472535261,39.7279008615076,0 -87.0116269156847,39.7138744924508,0 -87.0118964102699,39.6954216733502,0 -87.0124353994405,39.6609908719276,0 -87.0129743877127,39.6088972468259,0 -87.0129743877127,39.6085512078209,0 -87.0130642201394,39.6066133613088,0 -87.0130642201394,39.6048138838423,0 -87.0153100083501,39.6048138838423,0 -87.0222270360388,39.6048138838423,0 -87.0284254115,39.6049523068461,0 -87.0292338952559,39.6049523068461,0 -87.0303118726986,39.6049523068461,0 -87.0321983356939,39.6050215189364,0 -87.0341746293192,39.6050907295732,0 -87.0353424391887,39.6050907295732,0 -87.0383967111552,39.6050215189364,0 -87.0428882866781,39.6050215189364,0 -87.0472002009408,39.6050215189364,0 -87.0567223429538,39.605159940833,0 -87.0646275174551,39.605159940833,0 -87.0701970722174,39.6052291513315,0 -87.0764852792071,39.6052983638372,0 -87.0845701167653,39.6053675748895,0 -87.0883430409592,39.6053675748895,0 -87.0960685524036,39.6054367858726,0 -87.1032550746776,39.6055059954022,0 -87.1066686727577,39.6055752069391,0 -87.1082856402694,39.6055752069391,0 -87.1129568797474,39.6056444177146,0 -87.1147535103159,39.6056444177146,0 -87.1176281192255,39.605713628421,0 -87.1205027281351,39.605713628421,0 -87.123018010931,39.6057828383661,0 -87.1281384080512,39.6058520496262,0 -87.1334384682282,39.6059904705547,0 -87.1418826319001,39.6061288918987,0 -87.150955616271,39.6062673115816,0 -87.158142138545,39.60640573168,0 -87.1675744490295,39.6065441515017,0 -87.1707185525244,39.6066825703546,0 -87.1711677101665,39.6065441515017,0 -87.1813186728785,39.606820990315,0 -87.1895831734935,39.6070286186986,0 -87.1989256524496,39.6070978273293,0 -87.2128495393554,39.6073054555748,0 -87.2382718618996,39.6076514994216,0 -87.2527347379759,39.6078591253148,0 -87.2797740280317,39.6079975429231,0 -87.2913622951984,39.6081359595626,0 -87.3135506827193,39.6082051677786,0 -87.3304390100631,39.6082743759254,0 -87.3493036310322,39.6082743759254,0 -87.3698750510414,39.6081359595626,0 -87.3820921389071,39.6079283344996,0 -87.3871227044989,39.6079283344996,0 -87.3935905745454,39.6078591253148,0 -87.4014059175184,39.6078591253148,0 -87.4063466515817,39.6078591253148,0 -87.4094009235482,39.607789917445,0 -87.4158687935947,39.607789917445,0 -87.4193722232033,39.6077207088139,0 -87.4248519464372,39.6077207088139,0 -87.4283553760457,39.6077207088139,0 -87.4369792027745,39.6076514994216,0 -87.4426385890652,39.6076514994216,0 -87.4469505024296,39.6075822913443,0 -87.4520708995498,39.6075822913443,0 -87.4588082641816,39.6075130825057,0 -87.4629405144891,39.6074438735979,0 -87.4721033303884,39.6074438735979,0 -87.4770440644518,39.6074438735979,0 -87.4814458093446,39.607374664621,0 -87.4891713207891,39.6075130825057,0 -87.4958188538925,39.6075130825057,0 -87.4999511042,39.6075130825057,0 -87.5004002618421,39.6075130825057,0 -87.5048020067349,39.6073054555748,0 -87.5152224640322,39.6073054555748,0 -87.5199835350386,39.6073054555748,0 -87.5284276996089,39.6073054555748,0 -87.5322006229044,39.6073054555748,0 -87.5322006229044,39.6122883293843,0 -87.5322006229044,39.6273039908886,0 -87.5323802859612,39.6437690333524,0 -87.5324701174897,39.6555965403481,0 -87.5325599490181,39.6644485548974,0 -87.5326497805465,39.6648634645361,0 -87.5326497805465,39.6651400693473,0 -87.532739612075,39.6662464809773,0 -87.532739612075,39.6669379788172,0 -87.532739612075,39.6712251109585,0 -87.532739612075,39.6756502586436,0 -87.532739612075,39.680282531404,0 -87.532739612075,39.6850527569174,0 -87.5328294436034,39.6898226515251,0 -87.5328294436034,39.6941083633203,0 -87.5328294436034,39.6995688034433,0 -87.5328294436034,39.7049597016135,0 -87.5328294436034,39.7088298298272,0 -87.5328294436034,39.7137362874309,0 -87.5328294436034,39.716293035475,0 -87.5328294436034,39.7171913298567,0 -87.5329192751318,39.7216135316193,0 -87.5329192751318,39.7270717958764,0 -87.5329192751318,39.7307334278838,0 -87.5329192751318,39.7359146486204,0 -87.5329192751318,39.741026405398,0 -87.5330091057619,39.745585219941,0 -87.5330091057619,39.7484861267049,0 -87.5329192751318,39.7514559754478,0 -87.5330091057619,39.7561522208957,0 -87.5330989381886,39.7812854989647,0 -87.5330989381886,39.8033731078291,0 -87.5331887706154,39.832697248423,0 -87.5330989381886,39.8624225964275,0 -87.5330989381886,39.8983379108133,0 -87.532739612075,39.933407832439,0 -87.532739612075,39.9696301773149,0 -87.5325599490181,39.9708693864933,0 -87.5326497805465,39.9733477353869,0 -87.5326497805465,39.9741738326328,0 -87.532739612075,39.9754817984279,0 -87.5326497805465,39.977133929968,0 -87.5324701174897,39.9781664918982,0 -87.5324701174897,39.9822965835977,0 -87.5324701174897,39.9873211918676,0 -87.5323802859612,39.9919324934026,0 -87.5322904544328,39.993308940991,0 -87.5322904544328,39.9981262884123,0 -87.5322904544328,39.9999155039657,0 -87.5322904544328,40.0019799229189,0 -87.5322904544328,40.0084480336054,0 -87.5322904544328,40.012094676906,0 -87.5323802859612,40.0149843313438,0 -87.5323802859612,40.0170482953214,0 -87.5323802859612,40.0224143095218,0 -87.5323802859612,40.0285365538565,0 -87.5322904544328,40.0318382103749,0 -87.5322904544328,40.0443555395008,0 -87.5322006229044,40.0534326050084,0 -87.532110791376,40.0641584854463,0 -87.5320209598476,40.0741952818974,0 -87.5319311283191,40.084574247732,0 -87.5319311283191,40.0959824110074,0 -87.5317514652623,40.1068390064346,0 -87.5316616346322,40.1178999583763,0 -87.5316616346322,40.1260056019945,0 -87.5315718022054,40.1298520086427,0 -87.5315718022054,40.1376128464269,0 -87.5315718022054,40.1390550283571,0 -87.5314819697787,40.1427633556215,0 -87.5317514652623,40.1443427668815,0</coordinates></LinearRing></outerBoundaryIs></Polygon></Placemark>
<Placemark><name>Danville Ll</name><styleUrl>#s</styleUrl><Polygon><outerBoundaryIs><LinearRing><coordinates>-86.8996069997394,39.8659391294542,0 -86.8868509227031,39.8658012309726,0 -86.867357481035,39.8655943799726,0 -86.8602607902894,39.8655254297304,0 -86.851277637447,39.8655254297304,0 -86.8395097072234,39.8653875283488,0 -86.8318740273074,39.8653875283488,0 -86.8213637384817,39.8653185785883,0 -86.8117517649402,39.8652496273795,0 -86.8016906337567,39.8651117268226,0 -86.8011516454845,39.8651117268226,0 -86.7995346770745,39.8651117268226,0 -86.7991753509608,39.8651806774805,0 -86.7980075410913,39.8651806774805,0 -86.7847124748845,39.8650427754059,0 -86.7742021860588,39.8650427754059,0 -86.7705190933934,39.8649738259885,0 -86.7524629561801,39.8649048744332,0 -86.7327000199267,39.8649048744332,0 -86.7131167467302,39.8648359234982,0 -86.6949707779884,39.8648359234982,0 -86.6867961089018,39.8648359234982,0 -86.6868859404303,39.8575267314279,0 -86.6867961089018,39.8486305323293,0 -86.6867961089018,39.8414575633511,0 -86.6867961089018,39.8354565239692,0 -86.6867062773734,39.8306277195376,0 -86.686616445845,39.8273853329487,0 -86.6867961089018,39.8262815059291,0 -86.6867961089018,39.8196581755269,0 -86.6754773363204,39.8195891784521,0 -86.6564330522944,39.8194511868546,0 -86.6377480943821,39.8194511868546,0 -86.6189733049414,39.819382189572,0 -86.5878915961065,39.819382189572,0 -86.5811542314747,39.8194511868546,0 -86.5765728226267,39.8194511868546,0 -86.5766626550534,39.8338009716672,0 -86.5766626550534,39.8343528266385,0 -86.5715422579333,39.8343528266385,0 -86.5618404528634,39.8343528266385,0 -86.5537556153052,39.8343528266385,0 -86.5430656634227,39.8342838443198,0 -86.5288722819316,39.8342838443198,0 -86.5248298631525,39.8342838443198,0 -86.5054262530129,39.8343528266385,0 -86.5053364214844,39.8269713994634,0 -86.5053364214844,39.8232458913885,0 -86.5053364214844,39.8123441739264,0 -86.5053364214844,39.804960381558,0 -86.5005753504779,39.804960381558,0 -86.49599394163,39.8050293926281,0 -86.487459947328,39.8050293926281,0 -86.476949657604,39.8048913704187,0 -86.4673376849609,39.8044082905039,0 -86.4673376849609,39.8050984036288,0 -86.4566477330784,39.804960381558,0 -86.4565579024483,39.7990251704094,0 -86.4570070591921,39.7763838485582,0 -86.4575460483626,39.7761767289111,0 -86.4571867222489,39.7471738268694,0 -86.4569172276636,39.7179514159647,0 -86.4664393696766,39.7177441205842,0 -86.4665292012051,39.7168458334022,0 -86.4816208979804,39.7169149328315,0 -86.4953651218293,39.7167767339036,0 -86.5113551338889,39.7167076343357,0 -86.524919694681,39.7166385346987,0 -86.5389334131152,39.7167767339036,0 -86.5498030280546,39.7167076343357,0 -86.5610319691076,39.7166385346987,0 -86.5608523060508,39.7093135805902,0 -86.560762473624,39.6976335074451,0 -86.560762473624,39.6875414383648,0 -86.5603133168802,39.687610567835,0 -86.5601336538234,39.6682518056471,0 -86.5601336538234,39.6591236504966,0 -86.5600438222949,39.6520000858606,0 -86.5599539907665,39.6446682729462,0 -86.5599539907665,39.6377507549526,0 -86.5598641592381,39.6300714983312,0 -86.5598641592381,39.6232217143312,0 -86.5597743277096,39.6154024445249,0 -86.5596844961812,39.6008687119147,0 -86.5904967104308,39.600799496366,0 -86.6119664457243,39.6008687119147,0 -86.6441261329002,39.6010071428045,0 -86.6567923784081,39.6011455734176,0 -86.6556245676402,39.6030143596127,0 -86.655085579368,39.6039141275729,0 -86.6553550739533,39.6048138838423,0 -86.6549957478396,39.6053675748895,0 -86.6541872640838,39.6061981014287,0 -86.6541872640838,39.6074438735979,0 -86.6536482749132,39.6081359595626,0 -86.6530194542142,39.608343583311,0 -86.652390632617,39.6091048682913,0 -86.65212113893,39.6099353506956,0 -86.6499651822478,39.6111810556237,0 -86.649516025504,39.6110426443798,0 -86.649516025504,39.61021217595,0 -86.6488872039067,39.6098661449012,0 -86.6481685516793,39.6098661449012,0 -86.6473600679235,39.6104197948564,0 -86.6473600679235,39.6112502607958,0 -86.6479888886225,39.6124267388298,0 -86.6479888886225,39.6130495702974,0 -86.6477193940372,39.613395586819,0 -86.647899057094,39.6145720277031,0 -86.6475397309804,39.6147796328425,0 -86.6459227634687,39.6147104318906,0 -86.6451142797129,39.6151948419454,0 -86.6446651220708,39.615956050897,0 -86.644575289644,39.6168556492999,0 -86.643227817616,39.6176860394179,0 -86.6428684915023,39.6185856167206,0 -86.6429583230307,39.6193467883831,0 -86.6435871437296,39.6200387553575,0 -86.6436769752581,39.6205231274312,0 -86.6434074806728,39.6212842784772,0 -86.6434074806728,39.6219762253883,0 -86.6433176491444,39.6223913913212,0 -86.6439464698434,39.623360100531,0 -86.6442159644286,39.6243979888999,0 -86.6438566383149,39.6256434328724,0 -86.6443956274855,39.6264737168619,0 -86.644934616656,39.6270272332948,0 -86.644934616656,39.6275115578385,0 -86.6446651220708,39.6282034438665,0 -86.6437668067865,39.6283418194116,0 -86.6429583230307,39.6294488193445,0 -86.6416108501043,39.6300714983312,0 -86.6523008019868,39.6301406853081,0 -86.6659551943074,39.6302790576706,0 -86.6749383471498,39.630348243748,0 -86.6874249304991,39.6304174297563,0 -86.6876944241861,39.601284003754,0 -86.7063793820984,39.6014224338137,0 -86.7206625951178,39.6015608635967,0 -86.7626139188921,39.6019069368437,0 -86.794773606068,39.6020453656583,0 -86.794773606068,39.6223221979793,0 -86.7944142799544,39.6479192666808,0 -86.7941447853691,39.6746822818103,0 -86.7938752907838,39.6889240007932,0 -86.8086974929738,39.6889240007932,0 -86.8260349779597,39.6892696363831,0 -86.8421148206494,39.6894770173213,0 -86.8711304052288,39.6899609044457,0 -86.8828983354524,39.6901682833074,0 -86.8828983354524,39.6905139133592,0 -86.8968222223582,39.6903065355358,0 -86.9007748105072,39.6902374094562,0 -86.9007748105072,39.7120778055936,0 -86.9009544726658,39.7278317723948,0 -86.9003256519668,39.7774884768399,0 -86.8996968312678,39.8505615889355,0 -86.8996069997394,39.8659391294542,0</coordinates></LinearRing></outerBoundaryIs></Polygon></Placemark>
<Placemark><name>Eagle Creek Ll</name><styleUrl>#s</styleUrl><Polygon><outerBoundaryIs><LinearRing><coordinates>-86.3275598267324,39.8364222439812,0 -86.3276496582609,39.8415265377748,0 -86.3277394897893,39.8446303144424,0 -86.3278293213177,39.8499408976252,0 -86.3278293213177,39.8519408806428,0 -86.3280089843746,39.8556648316778,0 -86.3280089843746,39.8580783957274,0 -86.328098815903,39.8626984094529,0 -86.328098815903,39.8660770297271,0 -86.3255835331071,39.8661459794149,0 -86.3254038700502,39.8662149283439,0 -86.3254038700502,39.8665596753968,0 -86.3254937015787,39.8677318024189,0 -86.3258530276924,39.8715238415644,0 -86.3260326907492,39.8734542533475,0 -86.3260326907492,39.8778664184372,0 -86.3260326907492,39.8821404333545,0 -86.3259428592208,39.8844841355776,0 -86.3260326907492,39.8912390623391,0 -86.3260326907492,39.8951676428502,0 -86.3260326907492,39.8998540744136,0 -86.3260326907492,39.9024039109622,0 -86.3259428592208,39.9059873029901,0 -86.3260326907492,39.9096394149366,0 -86.3260326907492,39.910604090374,0 -86.3260326907492,39.9152894668853,0 -86.3260326907492,39.9190788758827,0 -86.3261225222776,39.9217657824298,0 -86.3261225222776,39.924177020977,0 -86.3213614512711,39.924177020977,0 -86.3139952659403,39.9242459129285,0 -86.3072579013085,39.9243836945566,0 -86.3009696943188,39.9245214765963,0 -86.2976459277671,39.9245214765963,0 -86.293603508988,39.9245903675122,0 -86.2890221010384,39.9246592583588,0 -86.2836322093329,39.9246592583588,0 -86.2785118122127,39.9247281484472,0 -86.270965963825,39.9248659304827,0 -86.2680913549154,39.9249348203631,0 -86.2671930396312,39.9249348203631,0 -86.2661150612901,39.9250726019827,0 -86.2648574198922,39.925141492344,0 -86.2605455074261,39.925141492344,0 -86.2599166858288,39.925141492344,0 -86.2572217399761,39.925210382636,0 -86.2509335329864,39.9255548323675,0 -86.2483284186621,39.9256926127393,0 -86.2411418963881,39.9261059494355,0 -86.2407825702744,39.9260370607335,0 -86.2329672273015,39.9261059494355,0 -86.2296434607498,39.926174839446,0 -86.2284756508802,39.9236947808875,0 -86.2244332321012,39.9153583664006,0 -86.222636602431,39.9116376568626,0 -86.2214687916631,39.9090881646471,0 -86.2197619926231,39.9054360233124,0 -86.2175162044125,39.9009567177805,0 -86.217426372884,39.9005432285972,0 -86.215719573844,39.8970973883713,0 -86.2133839541049,39.8922729209655,0 -86.2117669865933,39.8889645184717,0 -86.209790692968,39.8847598599029,0 -86.2069160840584,39.8789694169097,0 -86.2034126535515,39.8714548979711,0 -86.2017058554098,39.868076542539,0 -86.2063770948878,39.8680075947915,0 -86.2122161442354,39.8679386469746,0 -86.2158094053724,39.867869698399,0 -86.2170670467704,39.867869698399,0 -86.2169772152419,39.8649738259885,0 -86.2168873837135,39.8609056056599,0 -86.2167975521851,39.8572508976152,0 -86.2167077206566,39.8535959949354,0 -86.2166178891282,39.8461476663335,0 -86.2165280575998,39.8418024347767,0 -86.2164382260714,39.8407678159935,0 -86.2163483954413,39.84035396246,0 -86.2163483954413,39.8400780603281,0 -86.2163483954413,39.839733180932,0 -86.2165280575998,39.8392503459019,0 -86.2165280575998,39.8388364839129,0 -86.2165280575998,39.8384226194298,0 -86.2164382260714,39.8373879497243,0 -86.2163483954413,39.836767139315,0 -86.2163483954413,39.836008364949,0 -86.2163483954413,39.8347667149573,0 -86.2163483954413,39.8335250425189,0 -86.2163483954413,39.8304207639096,0 -86.2163483954413,39.8294549588259,0 -86.2164382260714,39.8294549588259,0 -86.2164382260714,39.8284891408536,0 -86.2163483954413,39.8284891408536,0 -86.2163483954413,39.8273163436327,0 -86.2164382260714,39.8262815059291,0 -86.2163483954413,39.8239358154041,0 -86.2236247483453,39.8238668233142,0 -86.2256908726008,39.8239358154041,0 -86.229912955335,39.8241427919478,0 -86.2318892489604,39.8240737993759,0 -86.2348536893984,39.8240048074246,0 -86.2398842549902,39.8288340774024,0 -86.2450046521104,39.8342838443198,0 -86.2492267339463,39.8386985295922,0 -86.250214880759,39.838629552328,0 -86.2509335329864,39.8385605749944,0 -86.2515623536854,39.8384915975916,0 -86.2521013428559,39.8384226194298,0 -86.2564132562202,39.8384226194298,0 -86.2593776966583,39.8383536425782,0 -86.2628811262668,39.8382846649675,0 -86.2661150612901,39.8382846649675,0 -86.2687201756144,39.8382846649675,0 -86.2706066377113,39.8382156879773,0 -86.2716846160524,39.8382156879773,0 -86.2759965294168,39.8380777317198,0 -86.2811169274353,39.838008753832,0 -86.2844406930887,39.837939775875,0 -86.2871356389414,39.8378707978486,0 -86.2896509217373,39.8378707978486,0 -86.29234586759,39.837801819753,0 -86.2931543513459,39.8377328415881,0 -86.2940526666301,39.8373879497243,0 -86.2949509819144,39.8370430554387,0 -86.2956696341418,39.8365602028744,0 -86.2957594656702,39.8360773448459,0 -86.2957594656702,39.8333180949302,0 -86.2956696341418,39.8313865533453,0 -86.2958492971986,39.8311106158776,0 -86.2961187917839,39.8308346759218,0 -86.2968374440113,39.8305587348574,0 -86.2973764331818,39.830282791305,0 -86.2997120529209,39.8289030645044,0 -86.2999815466078,39.8286961029907,0 -86.3000713790346,39.8282821774031,0 -86.2999815466078,39.8276612853802,0 -86.2998917159777,39.8264884747168,0 -86.2989934006934,39.8243497678681,0 -86.2988137376366,39.8239358154041,0 -86.2979154223524,39.8230389135228,0 -86.2975560962387,39.8226249545414,0 -86.2981849169376,39.8221419999342,0 -86.2985442430514,39.8215210517317,0 -86.2987239061082,39.8209000986079,0 -86.2987239061082,39.8192441968689,0 -86.2988137376366,39.8186922198356,0 -86.2990832322219,39.8180712418399,0 -86.299532389864,39.8175882538485,0 -86.3001612114613,39.8169672658777,0 -86.3006039021317,39.8165116684584,0 -86.3013652593694,39.8157924358909,0 -86.3021186198044,39.8149941510192,0 -86.3026590795171,39.8144883991893,0 -86.3029506340308,39.8142582690064,0 -86.3033157632612,39.8139580209425,0 -86.3037549343323,39.8137294898374,0 -86.3042393310864,39.8134992618902,0 -86.3052352231735,39.8131436798754,0 -86.3061405201641,39.8127189947544,0 -86.3066532911048,39.8123447024947,0 -86.3071237792433,39.8118429817163,0 -86.3073501942208,39.8114531621063,0 -86.307631618433,39.8108823130763,0 -86.3077940221584,39.8105377032013,0 -86.3097537849858,39.8112405924561,0 -86.3121312985564,39.8121512793523,0 -86.3152336726114,39.8132445502966,0 -86.3153053518829,39.813350129313,0 -86.3158616947081,39.8141925503079,0 -86.316140630587,39.8145997372246,0 -86.3164669822416,39.8150249717036,0 -86.3169565892243,39.8156909088756,0 -86.3172530709974,39.8160722153892,0 -86.3175201850471,39.8163742744283,0 -86.3177117040691,39.816584959698,0 -86.3179137666176,39.8168179869569,0 -86.3181454897401,39.8170982211234,0 -86.3183052218757,39.8172592092157,0 -86.3185479825981,39.8175073096746,0 -86.3189356272028,39.8178948552709,0 -86.3192785069603,39.8182417141574,0 -86.3196874101962,39.8186549571328,0 -86.3200398632997,39.8190125929649,0 -86.3205009406873,39.8194789358847,0 -86.321020595418,39.8200033668497,0 -86.3213059425731,39.820295431142,0 -86.3217521411647,39.8207435278417,0 -86.3221812735625,39.8211774983803,0 -86.3225826848489,39.8215873816126,0 -86.3230459047185,39.8220545439562,0 -86.3233472876998,39.8223557646467,0 -86.3237200454236,39.8227258710716,0 -86.3240139589132,39.8230212713319,0 -86.3243036566092,39.8233075688076,0 -86.3245731476012,39.8235706470748,0 -86.3248926496018,39.8238884647604,0 -86.325196203811,39.8241872130243,0 -86.3254944013663,39.824484280736,0 -86.3259117963766,39.8249090856427,0 -86.3263632402311,39.8253712104753,0 -86.326746608855,39.8257562128971,0 -86.327129000112,39.8261304790315,0 -86.327372859474,39.8263700893364,0 -86.327469995204,39.8306967048383,0 -86.3275598267324,39.8364222439812,0</coordinates></LinearRing></outerBoundaryIs></Polygon></Placemark>
<Placemark><name>Lebanon Ll</name><styleUrl>#s</styleUrl><Polygon><outerBoundaryIs><LinearRing><coordinates>-86.4236795621466,40.1770901043937,0 -86.4231460742589,40.1770926048084,0 -86.4090370230134,40.1771587418754,0 -86.3988860603014,40.1771587418754,0 -86.3956521252782,40.1771587418754,0 -86.380740092458,40.1773646484128,0 -86.361965302119,40.177913733805,0 -86.3563957473567,40.1781196394242,0 -86.3561262527714,40.1571827048708,0 -86.3565754104135,40.1128162666597,0 -86.3563059158283,40.0984562188947,0 -86.3563059158283,40.0935772344542,0 -86.3562160842998,40.0799004728554,0 -86.3561060065415,40.0753521447781,0 -86.356036421243,40.0724767574252,0 -86.3560240936623,40.0707975858363,0 -86.3559465897146,40.0602396096794,0 -86.3559465897146,40.0483440956431,0 -86.3559465897146,40.0398165538201,0 -86.3478617521564,40.0399541039681,0 -86.3367226426317,40.0401604269505,0 -86.3366328111033,40.0262665729832,0 -86.3326802238526,40.0264041483978,0 -86.3224394296122,40.0265417255985,0 -86.3224394296122,40.0235837694287,0 -86.3224394296122,40.0207632738628,0 -86.3223495980838,40.012094676906,0 -86.3222597674537,40.0044571434096,0 -86.3220801026002,39.9975757529178,0 -86.3219004404417,39.988904210378,0 -86.3218106089133,39.9830537399973,0 -86.321541114328,39.9683909463593,0 -86.3366328111033,39.9683221009133,0 -86.3477719206279,39.9682532533326,0 -86.3537906330324,39.9682532533326,0 -86.3553177690156,39.968184406371,0 -86.356036421243,39.9679778643817,0 -86.3563957473567,39.9679778643817,0 -86.3562160842998,39.9607485264022,0 -86.3557669266577,39.9449790314989,0 -86.3554076014423,39.9309280359133,0 -86.3552279365888,39.924039238933,0 -86.3690619928645,39.9239014559228,0 -86.3835248689409,39.9237636719463,0 -86.3977182504319,39.9237636719463,0 -86.4027945627296,39.923703315201,0 -86.4093065175987,39.9236258883815,0 -86.4120014634514,39.9236258883815,0 -86.4307032045882,39.9234892943042,0 -86.4308660844206,39.9234724750118,0 -86.4308900119464,39.9234700045444,0 -86.4318126015063,39.9234596383631,0 -86.4354474923702,39.9233503204201,0 -86.4361574821433,39.9234108193943,0 -86.436255976126,39.9234192125145,0 -86.4410683139858,39.9233700049653,0 -86.4431367702677,39.9233488543956,0 -86.4450498952606,39.9233292917834,0 -86.4497307053897,39.9232814289454,0 -86.4508542346039,39.9232733754469,0 -86.4593426789311,39.9232125353346,0 -86.4682360002451,39.9230747513496,0 -86.4685953263588,39.9227302884518,0 -86.4731767343085,39.9227302884518,0 -86.4871006212143,39.922799181859,0 -86.4964329617841,39.9226641424211,0 -86.4966227632272,39.9226613956643,0 -86.5154873841964,39.9225236098813,0 -86.5342621736371,39.9225236098813,0 -86.5437843156501,39.9225925028075,0 -86.5626489366192,39.9226613956643,0 -86.5815135584867,39.9226613956643,0 -86.5834898512137,39.9227302884518,0 -86.5858254709527,39.9227302884518,0 -86.5957967706079,39.9226613956643,0 -86.6188616668094,39.9226613956643,0 -86.6189300115346,39.9226500049242,0 -86.6191410123201,39.9226320046022,0 -86.6196347156206,39.9226669615152,0 -86.6271327305159,39.922773449059,0 -86.6281900116729,39.9227800048889,0 -86.6283003023319,39.9227900315321,0 -86.6289446054948,39.922799181859,0 -86.6338853386598,39.922799181859,0 -86.6339798063934,39.9228000051265,0 -86.6417905131612,39.9228680738189,0 -86.6483297040514,39.9229555439596,0 -86.6483297840015,39.9229555453374,0 -86.6560002296174,39.9230581475888,0 -86.6572415360502,39.9230747513496,0 -86.6665218390122,39.9229476598984,0 -86.6773637984173,39.922799181859,0 -86.6809296232088,39.922799181859,0 -86.6813809098582,39.922799181859,0 -86.6865266143166,39.922799181859,0 -86.6950783476505,39.922799181859,0 -86.6953301041022,39.922799181859,0 -86.6953301041022,39.9245903675122,0 -86.6953301041022,39.9309280359133,0 -86.6953301041022,39.9355431413818,0 -86.6953301041022,39.9382982809761,0 -86.6954199356306,39.9433261228572,0 -86.6954199356306,39.9485601965633,0 -86.6954199356306,39.9535184233184,0 -86.6954199356306,39.9586828606641,0 -86.695509767159,39.9701120943972,0 -86.695509767159,39.976514385321,0 -86.695509767159,39.9819524188241,0 -86.695509767159,39.9877341569343,0 -86.695509767159,39.9932401199586,0 -86.6955995986874,39.9994337963802,0 -86.6956894302159,40.0092048994349,0 -86.6956894302159,40.0147779315128,0 -86.6956894302159,40.0207632738628,0 -86.695761339456,40.0262149004449,0 -86.6957792617443,40.0275735406013,0 -86.6957792617443,40.0331450719293,0 -86.6958690932727,40.0393351285241,0 -86.6958690932727,40.0402292013684,0 -86.6958690932727,40.0432217250652,0 -86.6958690932727,40.0459372369254,0 -86.6957792617443,40.0508883974679,0 -86.6957792617443,40.054593688943,0 -86.6957794171528,40.0548078117251,0 -86.6958690932727,40.1788059869753,0 -86.6761959876494,40.1790118898868,0 -86.6601161449598,40.1787373525326,0 -86.6478092264639,40.1786000834389,0 -86.6344243278304,40.178531448788,0 -86.6211292616236,40.1784628133812,0 -86.617625832015,40.1784628133812,0 -86.6107986358547,40.1781882744917,0 -86.59795272729,40.177913733805,0 -86.5953476129657,40.177913733805,0 -86.5951679499089,40.1777764623588,0 -86.5820525467589,40.1777764623588,0 -86.5816033891168,40.1777764623588,0 -86.5811542314747,40.177707827561,0 -86.5807050738326,40.1776391920075,0 -86.57980675765,40.1776391920075,0 -86.5732490569733,40.1776391920075,0 -86.5595048331244,40.177707827561,0 -86.5445029678775,40.177707827561,0 -86.5292316080454,40.1775019206922,0 -86.5150382274526,40.1774332849304,0 -86.4871904527427,40.1772960138849,0 -86.4817107286105,40.1772273779149,0 -86.4682360002451,40.1770214689017,0 -86.4637444238239,40.1770214689017,0 -86.4504493576171,40.1768841963368,0 -86.4473711778877,40.176920944916,0 -86.4332017041596,40.1770901043937,0 -86.4301474321932,40.1770214689017,0 -86.4236795621466,40.1770901043937,0</coordinates></LinearRing></outerBoundaryIs></Polygon></Placemark>
<Placemark><name>Terre Haute North Ll</name><styleUrl>#s</styleUrl><Polygon><outerBoundaryIs><LinearRing><coordinates>-87.4605695873662,39.2844439569691,0 -87.4604370472342,39.2884154390062,0 -87.460607455847,39.2927383823317,0 -87.4605695873662,39.30196953737,0 -87.4604559819238,39.3173960357203,0 -87.4603045080005,39.325466855904,0 -87.4603083078742,39.3392888799261,0 -87.4663155577756,39.3393096949975,0 -87.469588325172,39.3392722271698,0 -87.4695829424668,39.3453709329297,0 -87.4695129655028,39.3459953440191,0 -87.4693806508479,39.3468404012597,0 -87.4825735884884,39.3467435708408,0 -87.4959941861714,39.3467171629636,0 -87.5069745463173,39.3467100104521,0 -87.5163789254847,39.346678782812,0 -87.519067142956,39.3467238528119,0 -87.531650012229,39.3478900051587,0 -87.531690012412,39.3710400046491,0 -87.5314200120752,39.375040004636,0 -87.5313700118465,39.4116920063203,0 -87.5313600118008,39.4190200045283,0 -87.5313600944458,39.4365666130099,0 -87.5313712856576,39.4365641930552,0 -87.5313845322148,39.4380781961712,0 -87.5314578625897,39.4464585936276,0 -87.5314672257299,39.4475285466832,0 -87.5315998817446,39.4662237813092,0 -87.5316083303998,39.4678140323543,0 -87.5316550472862,39.4766061904806,0 -87.5316577242657,39.4771100049005,0 -87.5316610686935,39.4777392378753,0 -87.5316700123205,39.4779700047372,0 -87.5316800123662,39.480810004661,0 -87.5317500117881,39.4865200050004,0 -87.5317200116509,39.486600005139,0 -87.5317500117881,39.4876600046996,0 -87.5317400117424,39.4881000050822,0 -87.5317600118339,39.4901800049984,0 -87.5317500117881,39.4914000051682,0 -87.5317700118796,39.4916700046026,0 -87.5317100116052,39.4919700051324,0 -87.531690012412,39.4921500045516,0 -87.5317200116509,39.4925700050813,0 -87.5317300116966,39.4933200050148,0 -87.5317700118796,39.4936800047154,0 -87.5317700118796,39.4938200048658,0 -87.5316750123434,39.4940200044927,0 -87.5317300116966,39.4986000046458,0 -87.5318100120626,39.5000300046436,0 -87.5319500118047,39.5245400047788,0 -87.5318090122377,39.5350280046103,0 -87.5318950124514,39.5376510049045,0 -87.5318200121084,39.5441600047649,0 -87.5318400121998,39.5452900045246,0 -87.5318400121998,39.5464100047834,0 -87.5318700123371,39.5474800046653,0 -87.5318400121998,39.5548300049869,0 -87.5318700123371,39.5597600048772,0 -87.5318700123371,39.5620600047921,0 -87.5318500122456,39.5637000051009,0 -87.5318700123371,39.5639700047147,0 -87.5320200121249,39.5683500051012,0 -87.5321899706818,39.6073054555748,0 -87.5295971147678,39.6073054555748,0 -87.5284276996089,39.6073054555748,0 -87.5199835350386,39.6073054555748,0 -87.5152224640322,39.6073054555748,0 -87.5056110501412,39.6073054555748,0 -87.5047868988685,39.6073061684283,0 -87.5004002618421,39.6075130825057,0 -87.4999511042,39.6075130825057,0 -87.4958188538925,39.6075130825057,0 -87.4891713207891,39.6075130825057,0 -87.4826303853706,39.6073958889452,0 -87.4780133286772,39.6074286337871,0 -87.4770440644518,39.6074438735979,0 -87.4735922744974,39.6074438735979,0 -87.4723003057774,39.6074438735979,0 -87.4721033303884,39.6074438735979,0 -87.4662006677423,39.6074438735979,0 -87.465720011573,39.6075400047521,0 -87.462817601602,39.6075400047521,0 -87.4570200121998,39.6075400047521,0 -87.4555809991493,39.6075462342401,0 -87.4520708995498,39.6075822913443,0 -87.4509200408897,39.6075822913443,0 -87.4459099937173,39.6076249717085,0 -87.4440882354737,39.6076282321331,0 -87.437510011886,39.6076400045419,0 -87.437250011595,39.6076500045129,0 -87.4370633362891,39.6076514994216,0 -87.4272600117106,39.6077300049212,0 -87.4185588714769,39.6077367762958,0 -87.4158687935947,39.607789917445,0 -87.413716228951,39.607789917445,0 -87.4130200121479,39.6078400050723,0 -87.4103653719053,39.607789917445,0 -87.4094009235482,39.607789917445,0 -87.4072237872865,39.6078392500071,0 -87.4072200116674,39.6078400050723,0 -87.4071904651794,39.6078400050723,0 -87.4063466515817,39.6078591253148,0 -87.4014059175184,39.6078591253148,0 -87.3981673049674,39.6078591253148,0 -87.3893660771397,39.6079043295417,0 -87.3871227044989,39.6079283344996,0 -87.3846922927344,39.6079283344996,0 -87.3820921389071,39.6079283344996,0 -87.3814054163982,39.6079400051209,0 -87.3811900120711,39.6079400051209,0 -87.3811624885891,39.6079441334046,0 -87.3809900120546,39.6079700048996,0 -87.3804400122336,39.6080200045021,0 -87.3801000115766,39.6080300051103,0 -87.3798400121839,39.6080200045021,0 -87.3794600122422,39.6080300051103,0 -87.3792700122714,39.6080300051103,0 -87.3781600116854,39.6080300051103,0 -87.3770800121349,39.6080500049383,0 -87.3736868938466,39.6080711785336,0 -87.3698750510414,39.6081359595626,0 -87.361127776928,39.6081948163101,0 -87.3609600120571,39.6082000048481,0 -87.3574200120333,39.6082300045142,0 -87.3563008432415,39.6082272950148,0 -87.3532900120056,39.6082200046269,0 -87.3393900122015,39.6082280050906,0 -87.3279700120639,39.6082400050921,0 -87.326019043743,39.6082562627759,0 -87.3135506827193,39.6082051677786,0 -87.3063064311119,39.6081825719958,0 -87.2913622951984,39.6081359595626,0 -87.2797740280317,39.6079975429231,0 -87.2527347379759,39.6078591253148,0 -87.2382718618996,39.6076514994216,0 -87.2128495393554,39.6073054555748,0 -87.1989256524496,39.6070978273293,0 -87.1991053155065,39.6001765533151,0 -87.1991951470349,39.5861242389704,0 -87.1992849785634,39.5738694003263,0 -87.1994646407219,39.558149573301,0 -87.1996443055754,39.5460283313827,0 -87.1998239677339,39.5303021946608,0 -87.2000934623192,39.5198392225032,0 -87.2265937632044,39.5203935917012,0 -87.238990514127,39.5206707746409,0 -87.238990514127,39.5000869333105,0 -87.2391701771838,39.4849743746338,0 -87.2390803465537,39.4778328945903,0 -87.2393498402406,39.4777635569318,0 -87.2392600087122,39.4772781858402,0 -87.2391701771838,39.4771395079615,0 -87.2392600087122,39.4622993775651,0 -87.2394396717691,39.4459299565658,0 -87.239619334826,39.4280301683117,0 -87.239619334826,39.4146370107567,0 -87.2397091663544,39.3992282265505,0 -87.2397091663544,39.3901340584356,0 -87.2483329930831,39.390203483362,0 -87.2583941242666,39.3902729096078,0 -87.2705213797056,39.3902729096078,0 -87.2780672289916,39.3902729096078,0 -87.2977403337166,39.3902729096078,0 -87.3018807452184,39.3902729096078,0 -87.3023474092288,39.3903091094515,0 -87.3024575543608,39.390335223147,0 -87.3027097905128,39.3902805054532,0 -87.3032469102892,39.3902712808852,0 -87.3042644517746,39.3902643619376,0 -87.30450615518,39.39028973002,0 -87.3051327938711,39.3904580790184,0 -87.3051298105661,39.3902874237049,0 -87.308522611749,39.3902943419559,0 -87.3168211001229,39.3903021252478,0 -87.3237087645799,39.3903100078172,0 -87.3373073149274,39.3903310104103,0 -87.3423915126365,39.3903388631236,0 -87.3594091497706,39.3904180379462,0 -87.3600238336819,39.390453227576,0 -87.3600352171332,39.3930571665001,0 -87.3601604306057,39.3935234025555,0 -87.3604677721122,39.3939896348011,0 -87.360866178534,39.3942975226654,0 -87.3658747138418,39.3963383436643,0 -87.3696880307824,39.3978953094671,0 -87.3715584085441,39.3984255105133,0 -87.3719532540442,39.3985374383528,0 -87.3725451719513,39.3970420613683,0 -87.3730574083943,39.3939896348011,0 -87.3730801752969,39.3844884322334,0 -87.3731370898584,39.3795525746572,0 -87.3733533673479,39.3783735480486,0 -87.3738200717824,39.3773616808309,0 -87.3749583755881,39.3759186451073,0 -87.3764040209004,39.374871545532,0 -87.3779748796851,39.3741324070871,0 -87.3882879092541,39.3693630156804,0 -87.3882309946926,39.3681662169056,0 -87.3882879092541,39.3613898372443,0 -87.3884017401736,39.3515497154293,0 -87.3883393926014,39.3478993166042,0 -87.3883220587096,39.3468844152316,0 -87.387879427328,39.3318511706322,0 -87.388295462289,39.3137566075584,0 -87.3884341415076,39.3073902131644,0 -87.3884803670155,39.2882517777089,0 -87.3886984986278,39.2737619172663,0 -87.3698367271148,39.2736673584235,0 -87.3700260695188,39.2629559500175,0 -87.3702343466124,39.25905632821,0 -87.3701396749612,39.2555963325332,0 -87.3701586096508,39.2531625034861,0 -87.3702715180005,39.248307449936,0 -87.3791670338988,39.2482894321963,0 -87.3796323621143,39.2482894321963,0 -87.3819546382781,39.2482500178527,0 -87.3843297488554,39.2482218649353,0 -87.3866685055114,39.2482594023879,0 -87.388873965654,39.2482030965494,0 -87.3888860839271,39.2445806782875,0 -87.3984713514535,39.2445525238971,0 -87.4079165356944,39.2446617623674,0 -87.4126008357784,39.2445296248362,0 -87.4266091409647,39.2446182169931,0 -87.4451131916534,39.2447120643651,0 -87.460692462524,39.2447098123802,0 -87.4606884416648,39.2593112410417,0 -87.4605317188854,39.273905983042,0 -87.4605695873662,39.2844439569691,0</coordinates></LinearRing></outerBoundaryIs></Polygon></Placemark>
<Placemark><name>Tri West Ll</name><styleUrl>#s</styleUrl><Polygon><outerBoundaryIs><LinearRing><coordinates>-86.4497307053897,39.9232814289454,0 -86.436255976126,39.9234192125145,0 -86.4354474923702,39.9233503204201,0 -86.4308660844206,39.9234881045394,0 -86.4308660844206,39.9197678359947,0 -86.4307762528921,39.9161162647633,0 -86.4306864213637,39.9088125388724,0 -86.4304169267784,39.8942027486798,0 -86.4302372637216,39.8830365646781,0 -86.4302372637216,39.8796587803951,0 -86.4301474321932,39.8755224913984,0 -86.4300576006647,39.8720753933319,0 -86.4300576006647,39.8696623216069,0 -86.4300576006647,39.8666975744224,0 -86.4298779376079,39.8660770297271,0 -86.4296982754494,39.8655254297304,0 -86.4296982754494,39.8651117268226,0 -86.4297881060794,39.8646980214202,0 -86.4299677691363,39.8644222164327,0 -86.4302372637216,39.8642153619646,0 -86.4304169267784,39.8638016518468,0 -86.4302372637216,39.8576646479185,0 -86.4301474321932,39.854837304464,0 -86.4300576006647,39.8504926228985,0 -86.4300576006647,39.8500098635269,0 -86.4302372637216,39.8492512347979,0 -86.4299677691363,39.8487684666962,0 -86.4300576006647,39.8480098249382,0 -86.4299677691363,39.8469752983092,0 -86.4298779376079,39.8462166353561,0 -86.4300576006647,39.8457338466042,0 -86.4299677691363,39.8453889949246,0 -86.4297881060794,39.844906199663,0 -86.4297881060794,39.8443544294928,0 -86.4298779376079,39.8440095708846,0 -86.4307762528921,39.8427680655536,0 -86.4346390086144,39.842699092377,0 -86.4392204174624,39.8426301184414,0 -86.4392204174624,39.8393882984243,0 -86.4391305850356,39.8352495815102,0 -86.4389509219788,39.8283511657491,0 -86.4388610904503,39.8231768999858,0 -86.4388610904503,39.8221419999342,0 -86.4387712589219,39.8206241176407,0 -86.4387712589219,39.8181402383688,0 -86.4386814273935,39.8175192553855,0 -86.4385915958651,39.8168982654112,0 -86.4386814273935,39.8157252703429,0 -86.4385915958651,39.8138622377184,0 -86.4385915958651,39.8132412153917,0 -86.4386814273935,39.8129652036677,0 -86.4385017643366,39.8059265309256,0 -86.4384119328082,39.7990251704094,0 -86.4565579024483,39.7990251704094,0 -86.4566477330784,39.804960381558,0 -86.4673376849609,39.8050984036288,0 -86.4673376849609,39.8044082905039,0 -86.476949657604,39.8048913704187,0 -86.487459947328,39.8050293926281,0 -86.49599394163,39.8050293926281,0 -86.5005753504779,39.804960381558,0 -86.5053364214844,39.804960381558,0 -86.5053364214844,39.8123441739264,0 -86.5053364214844,39.8232458913885,0 -86.5053364214844,39.8269713994634,0 -86.5054262530129,39.8343528266385,0 -86.5248298631525,39.8342838443198,0 -86.5288722819316,39.8342838443198,0 -86.5430656634227,39.8342838443198,0 -86.5537556153052,39.8343528266385,0 -86.5618404528634,39.8343528266385,0 -86.5715422579333,39.8343528266385,0 -86.5766626550534,39.8343528266385,0 -86.5766626550534,39.8338009716672,0 -86.5765728226267,39.8194511868546,0 -86.5811542314747,39.8194511868546,0 -86.5878915961065,39.819382189572,0 -86.6189733049414,39.819382189572,0 -86.6377480943821,39.8194511868546,0 -86.6564330522944,39.8194511868546,0 -86.6754773363204,39.8195891784521,0 -86.6867961089018,39.8196581755269,0 -86.6867961089018,39.8262815059291,0 -86.686616445845,39.8273853329487,0 -86.6867062773734,39.8306277195376,0 -86.6867961089018,39.8354565239692,0 -86.6867961089018,39.8414575633511,0 -86.6867961089018,39.8486305323293,0 -86.6868859404303,39.8575267314279,0 -86.6867961089018,39.8648359234982,0 -86.6949707779884,39.8648359234982,0 -86.6950606095169,39.8793830355568,0 -86.6951504410453,39.893927062333,0 -86.695240273472,39.9013012908831,0 -86.6953301041022,39.9084680035442,0 -86.695240273472,39.9157028663829,0 -86.6953301041022,39.922799181859,0 -86.6865266143166,39.922799181859,0 -86.6773637984173,39.922799181859,0 -86.6572415360502,39.9230747513496,0 -86.6417905131612,39.9228680738189,0 -86.6338853386598,39.922799181859,0 -86.6289446054948,39.922799181859,0 -86.6192427986283,39.9226613956643,0 -86.5957967706079,39.9226613956643,0 -86.5858254709527,39.9227302884518,0 -86.5834898512137,39.9227302884518,0 -86.5815135584867,39.9226613956643,0 -86.5626489366192,39.9226613956643,0 -86.5437843156501,39.9225925028075,0 -86.5342621736371,39.9225236098813,0 -86.5154873841964,39.9225236098813,0 -86.4966227632272,39.9226613956643,0 -86.4871006212143,39.922799181859,0 -86.4731767343085,39.9227302884518,0 -86.4685953263588,39.9227302884518,0 -86.4682360002451,39.9230747513496,0 -86.4593426789311,39.9232125353346,0 -86.4497307053897,39.9232814289454,0</coordinates></LinearRing></outerBoundaryIs></Polygon></Placemark>
<Placemark><name>Washington Township Ll</name><styleUrl>#s</styleUrl><Polygon><outerBoundaryIs><LinearRing><coordinates>-86.1266965291754,39.9566171325255,0 -86.1267863607038,39.9522100379658,0 -86.1267863607038,39.9488356623455,0 -86.1267863607038,39.9416043005592,0 -86.1267863607038,39.9371962373466,0 -86.1267863607038,39.9342344115455,0 -86.1267863607038,39.926932617408,0 -86.1123234846274,39.926932617408,0 -86.1123234846274,39.924177020977,0 -86.1121438215706,39.9221102508688,0 -86.1121438215706,39.9189410828907,0 -86.1121438215706,39.9174253409901,0 -86.112862473798,39.9139114489301,0 -86.1139404521391,39.9121888859464,0 -86.1146591043665,39.9115687529153,0 -86.1160964088213,39.9097772259545,0 -86.1170845556339,39.9088125388724,0 -86.1180727015483,39.9077789283784,0 -86.1191506807877,39.9066763954878,0 -86.1195100069014,39.906125121355,0 -86.1198693330151,39.9055738448536,0 -86.1207676482993,39.9041267186254,0 -86.121126974413,39.9035754246657,0 -86.121486301425,39.9028173889174,0 -86.121755795112,39.9014391186742,0 -86.121755795112,39.9005432285972,0 -86.1216659635836,39.8993027453874,0 -86.1216659635836,39.8981311586324,0 -86.1218456266404,39.8964771187294,0 -86.1216659635836,39.8952365626042,0 -86.121755795112,39.891790455547,0 -86.1224744473394,39.8915147594975,0 -86.1236422572089,39.8915836836138,0 -86.1256185508342,39.892755382988,0 -86.1275050129312,39.8930999966392,0 -86.1307389479544,39.8937892187438,0 -86.1328050731082,39.8942027486798,0 -86.1333440622788,39.894271669404,0 -86.1340627154045,39.894271669404,0 -86.1343322090914,39.894064905645,0 -86.1357695135462,39.8934446085578,0 -86.1371169855743,39.8915836836138,0 -86.1376559756431,39.8905498145916,0 -86.1458306447298,39.8905498145916,0 -86.1458306447298,39.8866898984434,0 -86.1458306447298,39.8847598599029,0 -86.1458306447298,39.88317442989,0 -86.1472679491846,39.883243362392,0 -86.1495137373952,39.8831054973187,0 -86.15265784089,39.8830365646781,0 -86.157868070437,39.8831054973187,0 -86.157957901067,39.8773149139269,0 -86.1570595857828,39.8743504974936,0 -86.1560714389701,39.8710412294404,0 -86.1589460478797,39.869179696386,0 -86.1607426775499,39.8671802164161,0 -86.1616409937325,39.8638706024422,0 -86.162179982903,39.862146782983,0 -86.1627189720736,39.8598023173914,0 -86.1629884666588,39.8549062654462,0 -86.1639766125732,39.8533891078314,0 -86.1686478529496,39.8519408806428,0 -86.1773615112067,39.8510443437373,0 -86.1787988156615,39.8502857264406,0 -86.1799666264294,39.8485615643522,0 -86.1797869615759,39.8467683919403,0 -86.1787988156615,39.8417334606301,0 -86.1778106688489,39.8375948843606,0 -86.1778106688489,39.8354565239692,0 -86.1783496580194,39.8346287524615,0 -86.1805056147016,39.8333180949302,0 -86.184188707367,39.8318694443509,0 -86.1839192127817,39.83124858475,0 -86.1844582019523,39.8307656893799,0 -86.1847276974359,39.8303517776419,0 -86.1852666857081,39.8295239453043,0 -86.186524327106,39.8280752147088,0 -86.1868836532197,39.8274543208155,0 -86.1870633162766,39.8267644314406,0 -86.1875124739187,39.824556741785,0 -86.1902074197714,39.824556741785,0 -86.1917345557546,39.824556741785,0 -86.1974837735738,39.8244877503187,0 -86.1991007410854,39.8244187587831,0 -86.2028736652793,39.8240048074246,0 -86.2045804643194,39.8240737993759,0 -86.2114076595813,39.8239358154041,0 -86.2163483954413,39.8239358154041,0 -86.2164382260714,39.8262815059291,0 -86.2163483954413,39.8273163436327,0 -86.2163483954413,39.8284891408536,0 -86.2164382260714,39.8284891408536,0 -86.2164382260714,39.8294549588259,0 -86.2163483954413,39.8294549588259,0 -86.2163483954413,39.8304207639096,0 -86.2163483954413,39.8335250425189,0 -86.2163483954413,39.8347667149573,0 -86.2163483954413,39.836008364949,0 -86.2163483954413,39.836767139315,0 -86.2164382260714,39.8373879497243,0 -86.2165280575998,39.8384226194298,0 -86.2165280575998,39.8388364839129,0 -86.2165280575998,39.8392503459019,0 -86.2163483954413,39.839733180932,0 -86.2163483954413,39.8400780603281,0 -86.2163483954413,39.84035396246,0 -86.2164382260714,39.8407678159935,0 -86.2165280575998,39.8418024347767,0 -86.2166178891282,39.8461476663335,0 -86.2167077206566,39.8535959949354,0 -86.2167975521851,39.8572508976152,0 -86.2168873837135,39.8609056056599,0 -86.2169772152419,39.8649738259885,0 -86.2170670467704,39.867869698399,0 -86.2158094053724,39.867869698399,0 -86.2122161442354,39.8679386469746,0 -86.2063770948878,39.8680075947915,0 -86.2017058554098,39.868076542539,0 -86.2034126535515,39.8714548979711,0 -86.2069160840584,39.8789694169097,0 -86.209790692968,39.8847598599029,0 -86.2117669865933,39.8889645184717,0 -86.2133839541049,39.8922729209655,0 -86.215719573844,39.8970973883713,0 -86.217426372884,39.9005432285972,0 -86.2175162044125,39.9009567177805,0 -86.2197619926231,39.9054360233124,0 -86.2214687916631,39.9090881646471,0 -86.222636602431,39.9116376568626,0 -86.2244332321012,39.9153583664006,0 -86.2284756508802,39.9236947808875,0 -86.2296434607498,39.926174839446,0 -86.2248823897433,39.9262437286982,0 -86.2238044114022,39.9262437286982,0 -86.2229959276464,39.9262437286982,0 -86.2220077808337,39.9261059494355,0 -86.222277275419,39.9270015058977,0 -86.222277275419,39.9287236956115,0 -86.222277275419,39.9317546449672,0 -86.222277275419,39.9339588869746,0 -86.222277275419,39.9350609806695,0 -86.222277275419,39.9386426648515,0 -86.2223671069474,39.9409155595078,0 -86.2223671069474,39.9438770968414,0 -86.2223671069474,39.9450479018258,0 -86.2224569375775,39.9486979299374,0 -86.2223671069474,39.9515214029919,0 -86.2224569375775,39.9544136203994,0 -86.2224569375775,39.9550333653608,0 -86.2223671069474,39.9557908237981,0 -86.2212891286063,39.9554465255484,0 -86.2192230025542,39.955515385337,0 -86.2119466496502,39.9555842443677,0 -86.2071855786436,39.9556531047062,0 -86.2025143391656,39.9557219649754,0 -86.196675289818,39.9557908237981,0 -86.1929921971526,39.9557908237981,0 -86.1840090443101,39.9559285426127,0 -86.1796971309458,39.9559285426127,0 -86.17888864719,39.9559974019159,0 -86.1778106688489,39.9559285426127,0 -86.1748462284108,39.9559974019159,0 -86.1698156628191,39.9560662604613,0 -86.1646054341705,39.9560662604613,0 -86.16244947659,39.9561351203145,0 -86.1577782380102,39.9562039794098,0 -86.1551731236859,39.9562728384358,0 -86.1531069994304,39.9563416973924,0 -86.1459204762582,39.956479414409,0 -86.1411594052517,39.956479414409,0 -86.1309186110113,39.9565482738462,0 -86.1266965291754,39.9566171325255,0</coordinates></LinearRing></outerBoundaryIs></Polygon></Placemark>
<Placemark><name>Zionsville Ll</name><styleUrl>#s</styleUrl><Polygon><outerBoundaryIs><LinearRing><coordinates>-86.2538081418959,40.0850553534731,0 -86.2415910540302,40.0853302695129,0 -86.2320165546092,40.0853723755555,0 -86.2318038524145,40.0707788649052,0 -86.231780219536,40.0671254770587,0 -86.2223740536195,40.0672339965641,0 -86.212873353494,40.0673425158966,0 -86.1939806682571,40.0676029607643,0 -86.1797929560338,40.0677534397048,0 -86.1680514111267,40.0678847682959,0 -86.1658520433584,40.0678942504973,0 -86.1657157446753,40.0678895097405,0 -86.1655856416726,40.0678136500245,0 -86.1655360780252,40.0677235665449,0 -86.1655447422761,40.067568234702,0 -86.1655447422761,40.064257610847,0 -86.1480596721738,40.0643617940438,0 -86.1388331217034,40.0645238562485,0 -86.1371088162951,40.0644080978648,0 -86.1355962662571,40.0646048868626,0 -86.1321325287094,40.0646859173802,0 -86.1278633589829,40.0647967920081,0 -86.1280849230579,40.0618292995224,0 -86.1285280530044,40.0601617943237,0 -86.1295620219814,40.0578159124196,0 -86.1322946548553,40.0540566810056,0 -86.1345841586809,40.0500145690891,0 -86.1353596356382,40.0475269970331,0 -86.1358766196776,40.0454068348313,0 -86.1359504746686,40.0426081201172,0 -86.1358027646864,40.0359642467543,0 -86.1352181294214,40.0326133625075,0 -86.1343257250517,40.0290230767411,0 -86.1291376811974,40.0146832109814,0 -86.1279276415263,40.0110340563448,0 -86.1275679390185,40.0091277207642,0 -86.1274571560827,40.0074589264611,0 -86.1272355911094,40.0032160455025,0 -86.1269401720434,40.0002458717308,0 -86.1262385500771,39.9962288602031,0 -86.123025859312,39.9932583824972,0 -86.1182991434752,39.9895521770453,0 -86.1151972356459,39.9867511707083,0 -86.1143479036975,39.9857608888874,0 -86.1133877897116,39.9837802814932,0 -86.1127600227364,39.9821108676829,0 -86.1128338777275,39.9806677816502,0 -86.1127969497828,39.9783191658695,0 -86.1127416476973,39.9711702746286,0 -86.1128626516644,39.9683418434354,0 -86.1133315417001,39.9640526059683,0 -86.1136038004015,39.9620238186822,0 -86.1137550551358,39.960667396492,0 -86.1139063098701,39.9583138814387,0 -86.1139365615356,39.9566443433907,0 -86.1266965291754,39.9566171325255,0 -86.1309186110113,39.9565482738462,0 -86.1411594052517,39.956479414409,0 -86.1459204762582,39.956479414409,0 -86.1531069994304,39.9563416973924,0 -86.1551731236859,39.9562728384358,0 -86.1577782380102,39.9562039794098,0 -86.16244947659,39.9561351203145,0 -86.1646054341705,39.9560662604613,0 -86.1698156628191,39.9560662604613,0 -86.1748462284108,39.9559974019159,0 -86.1771590327383,39.9559436792707,0 -86.1858702799172,39.9559000086743,0 -86.1929921971526,39.9557908237981,0 -86.196675289818,39.9557908237981,0 -86.2025143391656,39.9557219649754,0 -86.2071855786436,39.9556531047062,0 -86.2119466496502,39.9555842443677,0 -86.2192230025542,39.955515385337,0 -86.2212891286063,39.9554465255484,0 -86.2223671069474,39.9557908237981,0 -86.2224569375775,39.9550333653608,0 -86.2224569375775,39.9544136203994,0 -86.2223671069474,39.9515214029919,0 -86.2224569375775,39.9486979299374,0 -86.2223671069474,39.9450479018258,0 -86.2223671069474,39.9438770968414,0 -86.2223671069474,39.9409155595078,0 -86.222277275419,39.9386426648515,0 -86.222277275419,39.9350609806695,0 -86.222277275419,39.9339588869746,0 -86.222277275419,39.9317546449672,0 -86.222277275419,39.9287236956115,0 -86.222277275419,39.9270015058977,0 -86.2220077808337,39.9261059494355,0 -86.2229959276464,39.9262437286982,0 -86.2238044114022,39.9262437286982,0 -86.2248823897433,39.9262437286982,0 -86.2296434607498,39.926174839446,0 -86.2329672273015,39.9261059494355,0 -86.2407825702744,39.9260370607335,0 -86.2411418963881,39.9261059494355,0 -86.2483284186621,39.9256926127393,0 -86.2509335329864,39.9255548323675,0 -86.2572217399761,39.925210382636,0 -86.2576301266807,39.9251999430057,0 -86.2599166858288,39.925141492344,0 -86.2605455074261,39.925141492344,0 -86.2648574198922,39.925141492344,0 -86.2661150612901,39.9250726019827,0 -86.2671930396312,39.9249348203631,0 -86.2680913549154,39.9249348203631,0 -86.270965963825,39.9248659304827,0 -86.2785118122127,39.9247281484472,0 -86.2836322093329,39.9246592583588,0 -86.2890221010384,39.9246592583588,0 -86.293603508988,39.9245903675122,0 -86.2976459277671,39.9245214765963,0 -86.3009696943188,39.9245214765963,0 -86.3072579013085,39.9243836945566,0 -86.3139952659403,39.9242459129285,0 -86.3213614512711,39.924177020977,0 -86.3261225222776,39.924177020977,0 -86.3302547725852,39.924177020977,0 -86.33169207704,39.924177020977,0 -86.3334887076084,39.924177020977,0 -86.3402260722403,39.9241081296452,0 -86.3446278171331,39.9241081296452,0 -86.3552279365888,39.924039238933,0 -86.3554076014423,39.9309280359133,0 -86.3557669266577,39.9449790314989,0 -86.3562160842998,39.9607485264022,0 -86.3563957473567,39.9679778643817,0 -86.356036421243,39.9679778643817,0 -86.3553177690156,39.968184406371,0 -86.3537906330324,39.9682532533326,0 -86.3477719206279,39.9682532533326,0 -86.3366328111033,39.9683221009133,0 -86.321541114328,39.9683909463593,0 -86.3218106089133,39.9830537399973,0 -86.3219004404417,39.988904210378,0 -86.3220801026002,39.9975757529178,0 -86.3222597674537,40.0044571434096,0 -86.3223495980838,40.012094676906,0 -86.3224394296122,40.0207632738628,0 -86.3224394296122,40.0235837694287,0 -86.3224394296122,40.0265417255985,0 -86.3326802238526,40.0264041483978,0 -86.3366328111033,40.0262665729832,0 -86.3367226426317,40.0401604269505,0 -86.3478617521564,40.0399541039681,0 -86.3559465897146,40.0398165538201,0 -86.3559465897146,40.0483440956431,0 -86.3559465897146,40.0602396096794,0 -86.356036421243,40.0724767574252,0 -86.3562160842998,40.0799004728554,0 -86.3517245078786,40.0799692064861,0 -86.3453464693605,40.0800379407347,0 -86.3441786585926,40.0800379407347,0 -86.3413938821098,40.0803816109371,0 -86.3404955668256,40.0804503447694,0 -86.3372616318023,40.0805190785324,0 -86.3332192130232,40.0808627469936,0 -86.3240563971239,40.0816875418863,0 -86.3178580216626,40.0821686673398,0 -86.316241054151,40.082649790768,0 -86.3147139181677,40.0833371023841,0 -86.3130969506561,40.0841618686764,0 -86.306449418451,40.0842993286392,0 -86.2951306449712,40.0845055173756,0 -86.2794999590254,40.084574247732,0 -86.265665903648,40.0847804370104,0 -86.2538081418959,40.0850553534731,0</coordinates></LinearRing></outerBoundaryIs></Polygon></Placemark>
</Document>
</kml>