<?xml version="1.0" encoding="UTF-8"?>
<kml xmlns="http://www.opengis.net/kml/2.2">
  <Document>
    <name>WTLL District Boundaries</name>
    <description>Washington Township Little League boundary</description>
  <Placemark>
    <name>Washington Township Ll</name>
    <Style>
      <LineStyle><color>ff0000ff</color><width>2</width></LineStyle>
      <PolyStyle><color>330000ff</color></PolyStyle>
    </Style>
    
        <Polygon>
          <outerBoundaryIs>
            <LinearRing>
              <coordinates>-86.1266965291754,39.9566171325255,0 -86.1267863607038,39.9522100379658,0 -86.1267863607038,39.9488356623455,0 -86.1267863607038,39.9416043005592,0 -86.1267863607038,39.9371962373466,0 -86.1267863607038,39.9342344115455,0 -86.1267863607038,39.926932617408,0 -86.1123234846274,39.926932617408,0 -86.1123234846274,39.924177020977,0 -86.1121438215706,39.9221102508688,0 -86.1121438215706,39.9189410828907,0 -86.1121438215706,39.9174253409901,0 -86.112862473798,39.9139114489301,0 -86.1139404521391,39.9121888859464,0 -86.1146591043665,39.9115687529153,0 -86.1160964088213,39.9097772259545,0 -86.1170845556339,39.9088125388724,0 -86.1180727015483,39.9077789283784,0 -86.1191506807877,39.9066763954878,0 -86.1195100069014,39.906125121355,0 -86.1198693330151,39.9055738448536,0 -86.1207676482993,39.9041267186254,0 -86.121126974413,39.9035754246657,0 -86.121486301425,39.9028173889174,0 -86.121755795112,39.9014391186742,0 -86.121755795112,39.9005432285972,0 -86.1216659635836,39.8993027453874,0 -86.1216659635836,39.8981311586324,0 -86.1218456266404,39.8964771187294,0 -86.1216659635836,39.8952365626042,0 -86.121755795112,39.891790455547,0 -86.1224744473394,39.8915147594975,0 -86.1236422572089,39.8915836836138,0 -86.1256185508342,39.892755382988,0 -86.1275050129312,39.8930999966392,0 -86.1307389479544,39.8937892187438,0 -86.1328050731082,39.8942027486798,0 -86.1333440622788,39.894271669404,0 -86.1340627154045,39.894271669404,0 -86.1343322090914,39.894064905645,0 -86.1357695135462,39.8934446085578,0 -86.1371169855743,39.8915836836138,0 -86.1376559756431,39.8905498145916,0 -86.1458306447298,39.8905498145916,0 -86.1458306447298,39.8866898984434,0 -86.1458306447298,39.8847598599029,0 -86.1458306447298,39.88317442989,0 -86.1472679491846,39.883243362392,0 -86.1495137373952,39.8831054973187,0 -86.15265784089,39.8830365646781,0 -86.157868070437,39.8831054973187,0 -86.157957901067,39.8773149139269,0 -86.1570595857828,39.8743504974936,0 -86.1560714389701,39.8710412294404,0 -86.1589460478797,39.869179696386,0 -86.1607426775499,39.8671802164161,0 -86.1616409937325,39.8638706024422,0 -86.162179982903,39.862146782983,0 -86.1627189720736,39.8598023173914,0 -86.1629884666588,39.8549062654462,0 -86.1639766125732,39.8533891078314,0 -86.1686478529496,39.8519408806428,0 -86.1773615112067,39.8510443437373,0 -86.1787988156615,39.8502857264406,0 -86.1799666264294,39.8485615643522,0 -86.1797869615759,39.8467683919403,0 -86.1787988156615,39.8417334606301,0 -86.1778106688489,39.8375948843606,0 -86.1778106688489,39.8354565239692,0 -86.1783496580194,39.8346287524615,0 -86.1805056147016,39.8333180949302,0 -86.184188707367,39.8318694443509,0 -86.1839192127817,39.83124858475,0 -86.1844582019523,39.8307656893799,0 -86.1847276974359,39.8303517776419,0 -86.1852666857081,39.8295239453043,0 -86.186524327106,39.8280752147088,0 -86.1868836532197,39.8274543208155,0 -86.1870633162766,39.8267644314406,0 -86.1875124739187,39.824556741785,0 -86.1902074197714,39.824556741785,0 -86.1917345557546,39.824556741785,0 -86.1974837735738,39.8244877503187,0 -86.1991007410854,39.8244187587831,0 -86.2028736652793,39.8240048074246,0 -86.2045804643194,39.8240737993759,0 -86.2114076595813,39.8239358154041,0 -86.2163483954413,39.8239358154041,0 -86.2164382260714,39.8262815059291,0 -86.2163483954413,39.8273163436327,0 -86.2163483954413,39.8284891408536,0 -86.2164382260714,39.8284891408536,0 -86.2164382260714,39.8294549588259,0 -86.2163483954413,39.8294549588259,0 -86.2163483954413,39.8304207639096,0 -86.2163483954413,39.8335250425189,0 -86.2163483954413,39.8347667149573,0 -86.2163483954413,39.836008364949,0 -86.2163483954413,39.836767139315,0 -86.2164382260714,39.8373879497243,0 -86.2165280575998,39.8384226194298,0 -86.2165280575998,39.8388364839129,0 -86.2165280575998,39.8392503459019,0 -86.2163483954413,39.839733180932,0 -86.2163483954413,39.8400780603281,0 -86.2163483954413,39.84035396246,0 -86.2164382260714,39.8407678159935,0 -86.2165280575998,39.8418024347767,0 -86.2166178891282,39.8461476663335,0 -86.2167077206566,39.8535959949354,0 -86.2167975521851,39.8572508976152,0 -86.2168873837135,39.8609056056599,0 -86.2169772152419,39.8649738259885,0 -86.2170670467704,39.867869698399,0 -86.2158094053724,39.867869698399,0 -86.2122161442354,39.8679386469746,0 -86.2063770948878,39.8680075947915,0 -86.2017058554098,39.868076542539,0 -86.2034126535515,39.8714548979711,0 -86.2069160840584,39.8789694169097,0 -86.209790692968,39.8847598599029,0 -86.2117669865933,39.8889645184717,0 -86.2133839541049,39.8922729209655,0 -86.215719573844,39.8970973883713,0 -86.217426372884,39.9005432285972,0 -86.2175162044125,39.9009567177805,0 -86.2197619926231,39.9054360233124,0 -86.2214687916631,39.9090881646471,0 -86.222636602431,39.9116376568626,0 -86.2244332321012,39.9153583664006,0 -86.2284756508802,39.9236947808875,0 -86.2296434607498,39.926174839446,0 -86.2248823897433,39.9262437286982,0 -86.2238044114022,39.9262437286982,0 -86.2229959276464,39.9262437286982,0 -86.2220077808337,39.9261059494355,0 -86.222277275419,39.9270015058977,0 -86.222277275419,39.9287236956115,0 -86.222277275419,39.9317546449672,0 -86.222277275419,39.9339588869746,0 -86.222277275419,39.9350609806695,0 -86.222277275419,39.9386426648515,0 -86.2223671069474,39.9409155595078,0 -86.2223671069474,39.9438770968414,0 -86.2223671069474,39.9450479018258,0 -86.2224569375775,39.9486979299374,0 -86.2223671069474,39.9515214029919,0 -86.2224569375775,39.9544136203994,0 -86.2224569375775,39.9550333653608,0 -86.2223671069474,39.9557908237981,0 -86.2212891286063,39.9554465255484,0 -86.2192230025542,39.955515385337,0 -86.2119466496502,39.9555842443677,0 -86.2071855786436,39.9556531047062,0 -86.2025143391656,39.9557219649754,0 -86.196675289818,39.9557908237981,0 -86.1929921971526,39.9557908237981,0 -86.1840090443101,39.9559285426127,0 -86.1796971309458,39.9559285426127,0 -86.17888864719,39.9559974019159,0 -86.1778106688489,39.9559285426127,0 -86.1748462284108,39.9559974019159,0 -86.1698156628191,39.9560662604613,0 -86.1646054341705,39.9560662604613,0 -86.16244947659,39.9561351203145,0 -86.1577782380102,39.9562039794098,0 -86.1551731236859,39.9562728384358,0 -86.1531069994304,39.9563416973924,0 -86.1459204762582,39.956479414409,0 -86.1411594052517,39.956479414409,0 -86.1309186110113,39.9565482738462,0 -86.1266965291754,39.9566171325255,0</coordinates>
            </LinearRing>
          </outerBoundaryIs>
        </Polygon>
  </Placemark>
  </Document>
</kml>